LATITUDE,LONGITUDE,NAME,ADDRESS,CITY,STATE,ZIP,TELEPHONE,TYPE,WEBSITE,OWNER,BEDS,TRAUMA,HELIPAD
38.64339455,-121.3646809,HERITAGE OAKS HOSPITAL,4250 AUBURN BLVD.,SACRAMENTO,CA,95841,NOT AVAILABLE,PSYCHIATRIC,http://www.heritageoakshospital.com,PROPRIETARY,125,NOT AVAILABLE,NOT AVAILABLE
38.54992593,-121.4146168,SUTTER CENTER FOR PSYCHIATRY,7700 FOLSOM BOULEVARD,SACRAMENTO,CA,95826,NOT AVAILABLE,PSYCHIATRIC,http://www.sutterpsychiatry.org,NON-PROFIT,73,NOT AVAILABLE,NOT AVAILABLE
38.60179775,-121.393144,KAISER FND HOSP - SACRAMENTO,2025 MORSE AVENUE,SACRAMENTO,CA,95825,NOT AVAILABLE,GENERAL ACUTE CARE,http://www.kaiserpermanente.org,NON-PROFIT,287,NOT AVAILABLE,NOT AVAILABLE
38.47063789,-121.4225467,KAISER FND HOSP - SOUTH SACRAMENTO,6600 BRUCEVILLE ROAD,SACRAMENTO,CA,95823,NOT AVAILABLE,GENERAL ACUTE CARE,http://www.kaiserpermanente.org,NON-PROFIT,217,II,Y
38.46354745,-121.4165264,METHODIST HOSPITAL OF SACRAMENTO,7500 HOSPITAL DRIVE,SACRAMENTO,CA,95823,NOT AVAILABLE,GENERAL ACUTE CARE,http://www.methodistsacramento.org,NON-PROFIT,329,NOT AVAILABLE,NOT AVAILABLE
38.46678028,-121.4171117,SIERRA VISTA HOSPITAL,8001 BRUCEVILLE ROAD,SACRAMENTO,CA,95823,NOT AVAILABLE,PSYCHIATRIC,http://sierravistahospital.com,PROPRIETARY,120,NOT AVAILABLE,NOT AVAILABLE
38.57006128,-121.4524684,MERCY GENERAL HOSPITAL,4001 J STREET,SACRAMENTO,CA,95819,NOT AVAILABLE,GENERAL ACUTE CARE,http://www.mercygeneral.org,NON-PROFIT,419,NOT AVAILABLE,NOT AVAILABLE
38.55492974,-121.4554555,UNIVERSITY OF CALIFORNIA DAVIS MEDICAL CENTER,2315 STOCKTON BOULEVARD,SACRAMENTO,CA,95817,NOT AVAILABLE,GENERAL ACUTE CARE,http://www.ucdmc.ucdavis.edu,NON-PROFIT,611,"I, I PEDIATRIC",Y
38.55296329,-121.45533,SHRINERS HOSPITALS FOR CHILDREN NORTHERN CALIF.,2425 STOCKTON BLVD,SACRAMENTO,CA,95817,NOT AVAILABLE,GENERAL ACUTE CARE,http://www.shrinershospitalsforchildren.org/Hospitals/Locations/NorthernCalifornia.aspx,NON-PROFIT,80,NOT AVAILABLE,Y
38.55719537,-121.460877,SACRAMENTO COUNTY MENTAL HEALTH TREATMENT CENTER,2150 STOCKTON BOULEVARD,SACRAMENTO,CA,95817,NOT AVAILABLE,PSYCHIATRIC,http://www.namisacramento.org/resources/locallinks-saccounty.html,GOVERNMENT - LOCAL,50,NOT AVAILABLE,NOT AVAILABLE
38.55198584,-121.4564434,CRESTWOOD PSYCHIATRIC HEALTH FACILITY-SACRAMENTO,"2600 STOCKTON BLVD,STE B",SACRAMENTO,CA,95817,NOT AVAILABLE,PSYCHIATRIC,http://www.crestwoodbehavioralhealth.com/,PROPRIETARY,16,NOT AVAILABLE,NOT AVAILABLE
38.57196715,-121.4692248,"SUTTER MEDICAL CENTER, SACRAMENTO",2825 CAPITOL AVE,SACRAMENTO,CA,95816,(916) 887-0000,GENERAL ACUTE CARE,http://www.suttermedicalcenter.org,NON-PROFIT,523,NOT AVAILABLE,NOT AVAILABLE
38.57186985,-121.4725168,MIDTOWN OAKS POST-ACUTE,2600 L STREET,SACRAMENTO,CA,95816,(916) 321-9440,REHABILITATION,http://midtownoaks.com/,PROPRIETARY,100,NOT AVAILABLE,NOT AVAILABLE
38.66392502,-121.7921452,WOODLAND MEMORIAL HOSPITAL,1325 COTTONWOOD STREET,WOODLAND,CA,95695,NOT AVAILABLE,GENERAL ACUTE CARE,http://www.woodlandhealthcare.org,NON-PROFIT,108,NOT AVAILABLE,NOT AVAILABLE
38.38862766,-121.9391048,KAISER FOUNDATION HOSPITAL - VACAVILLE,1 QUALITY DRIVE,VACAVILLE,CA,95688,NOT AVAILABLE,GENERAL ACUTE CARE,http://www.kaiserpermanente.org,NON-PROFIT,140,II,Y
38.35579706,-121.951749,NORTH BAY VACAVALLEY HOSPITAL,1000 NUT TREE ROAD,VACAVILLE,CA,95687,NOT AVAILABLE,GENERAL ACUTE CARE,http://www.northbay.org/,PROPRIETARY,50,NOT AVAILABLE,Y
38.72494785,-120.791412,MARSHALL  MEDICAL CENTER (1-RH),1100 MARSHALL WAY,PLACERVILLE,CA,95667,NOT AVAILABLE,GENERAL ACUTE CARE,http://www.marshallmedical.org,NON-PROFIT,113,III,NOT AVAILABLE
38.73280885,-120.8020629,TELECARE EL DORADO COUNTY PHF,935-B SPRING STREET,PLACERVILLE,CA,95667,NOT AVAILABLE,PSYCHIATRIC,http://www.telecarecorp.com/programs/168,GOVERNMENT - LOCAL,16,NOT AVAILABLE,NOT AVAILABLE
38.76616,-121.2493086,SUTTER ROSEVILLE MEDICAL CENTER,ONE MEDICAL PLAZA,ROSEVILLE,CA,95661,NOT AVAILABLE,GENERAL ACUTE CARE,http://www.sutterroseville.org,NON-PROFIT,328,II,Y
38.74680587,-121.2509392,KAISER FND HOSP - ROSEVILLE,1600 EUREKA ROAD,ROSEVILLE,CA,95661,NOT AVAILABLE,GENERAL ACUTE CARE,http://www.kaiserpermanente.org,NON-PROFIT,340,NOT AVAILABLE,NOT AVAILABLE
38.73039978,-121.2861748,TELECARE PLACER COUNTY PSYCHIATRIC HEALTH FACILITY,101 CIRBY HILLS DRIVE,ROSEVILLE,CA,95661,NOT AVAILABLE,PSYCHIATRIC,http://www.telecarecorp.com/programs/30,PROPRIETARY,16,NOT AVAILABLE,NOT AVAILABLE
38.57296625,-121.2964588,VA MEDICAL CENTER - SACRAMENTO,10535 HOSPITAL WAY,MATHER,CA,95655,(916) 843-7000,MILITARY,http://www.northerncalifornia.va.gov/,GOVERNMENT - FEDERAL,-999,NOT AVAILABLE,N
38.35011701,-120.7643412,SUTTER AMADOR HOSPITAL,200 MISSION BLVD,JACKSON,CA,95642,NOT AVAILABLE,GENERAL ACUTE CARE,http://www.sutteramador.org,NON-PROFIT,52,NOT AVAILABLE,Y
38.67031491,-121.1456769,MERCY HOSPITAL - FOLSOM,1650 CREEKSIDE DRIVE,FOLSOM,CA,95630,NOT AVAILABLE,GENERAL ACUTE CARE,http://www.mercyfolsom.org,NON-PROFIT,106,NOT AVAILABLE,Y
38.68118058,-121.1582091,VIBRA HOSPITAL OF SACRAMENTO,330 MONTROSE DRIVE,FOLSOM,CA,95630,(916) 351-9151,GENERAL ACUTE CARE,http://www.vhsacramento.com/,PROPRIETARY,58,NOT AVAILABLE,NOT AVAILABLE
38.56250391,-121.77074,SUTTER DAVIS HOSPITAL,2000 SUTTER PLACE,DAVIS,CA,95616,NOT AVAILABLE,GENERAL ACUTE CARE,http://www.sutterhealth.org,NON-PROFIT,48,NOT AVAILABLE,NOT AVAILABLE
38.66982929,-121.3141082,MERCY SAN JUAN HOSPITAL,6501 COYLE AVENUE,CARMICHAEL,CA,95608,NOT AVAILABLE,GENERAL ACUTE CARE,http://www.mercysanjuan.org,NON-PROFIT,370,II,Y
38.6334945,-121.3545543,CRESTWOOD PSYCHIATRIC HEALTH FACILITY-CARMICHAEL,4741 ENGLE ROAD,CARMICHAEL,CA,95608,NOT AVAILABLE,PSYCHIATRIC,http://www.crestwoodbehavioralhealth.com/,PROPRIETARY,16,NOT AVAILABLE,NOT AVAILABLE
38.94510372,-121.1007482,SUTTER AUBURN FAITH HOSPITAL,11815 EDUCATION STREET,AUBURN,CA,95602,NOT AVAILABLE,GENERAL ACUTE CARE,http://www.sutterhealth.org,NON-PROFIT,64,NOT AVAILABLE,NOT AVAILABLE
40.10167816,-123.7922546,JEROLD PHELPS COMMUNITY HOSPITAL,733 CEDAR STREET,GARBERVILLE,CA,95542,NOT AVAILABLE,GENERAL ACUTE CARE,http://www.shchd.org,GOVERNMENT - DISTRICT/AUTHORITY,17,NOT AVAILABLE,NOT AVAILABLE
40.58262492,-124.1364053,REDWOOD MEMORIAL HOSPITAL,3300 RENNER DRIVE,FORTUNA,CA,95540,NOT AVAILABLE,GENERAL ACUTE CARE,http://www.redwoodmemorial.org/,NON-PROFIT,35,NOT AVAILABLE,NOT AVAILABLE
41.77372684,-124.1941234,SUTTER COAST HOSPITAL,800 EAST WASHINGTON BOULEVARD,CRESCENT CITY,CA,95531,NOT AVAILABLE,GENERAL ACUTE CARE,http://www.sutterhealth.org,NON-PROFIT,49,IV,NOT AVAILABLE
40.89605659,-124.0911892,MAD RIVER COMMUNITY HOSPITAL,3800 JANES ROAD,ARCATA,CA,95521,NOT AVAILABLE,GENERAL ACUTE CARE,http://www.madriverhospital.com,PROPRIETARY,78,NOT AVAILABLE,Y
40.78412185,-124.1422369,ST. JOSEPH HOSPITAL - EUREKA,2700 DOLBEER STREET,EUREKA,CA,95501,NOT AVAILABLE,GENERAL ACUTE CARE,http://www.stjosepheureka.org,NON-PROFIT,138,NOT AVAILABLE,NOT AVAILABLE
40.78071655,-124.1606002,SEMPERVIRENS P.H.F.,720 WOOD STREET,EUREKA,CA,95501,NOT AVAILABLE,PSYCHIATRIC,https://co.humboldt.ca.us/hhs/mhb/,GOVERNMENT - LOCAL,16,NOT AVAILABLE,NOT AVAILABLE
40.78816855,-124.1402628,"GENERAL HOSPITAL, THE",2200 HARRISON AVENUE,EUREKA,CA,95501,NOT AVAILABLE,GENERAL ACUTE CARE,http://www.stjosepheureka.org,NON-PROFIT,15,NOT AVAILABLE,NOT AVAILABLE
39.38969872,-123.3387298,FRANK R HOWARD MEMORIAL HOSPITAL,1 MARCELA DRIVE,WILLITS,CA,95490,NOT AVAILABLE,GENERAL ACUTE CARE,http://www.howardhospital.com,NON-PROFIT,25,NOT AVAILABLE,NOT AVAILABLE
39.15290589,-123.2028083,UKIAH VALLEY MEDICAL CENTER/HOSPITAL DRIVE,275 HOSPITAL DRIVE,UKIAH,CA,95482,NOT AVAILABLE,GENERAL ACUTE CARE,http://www.adventisthealth.org,NON-PROFIT,67,NOT AVAILABLE,Y
38.28807387,-122.4650102,SONOMA VALLEY HOSPITAL,347 ANDRIEUX STREET,SONOMA,CA,95476,NOT AVAILABLE,GENERAL ACUTE CARE,http://www.svh.com,GOVERNMENT - DISTRICT/AUTHORITY,75,NOT AVAILABLE,NOT AVAILABLE
38.39717434,-122.8190262,SONOMA WEST MEDICAL CENTER,501 PETALUMA AVENUE,SEBASTOPOL,CA,95472,NOT AVAILABLE,GENERAL ACUTE CARE,http://sonomawestmedicalcenter.com/,NON-PROFIT,47,NOT AVAILABLE,NOT AVAILABLE
39.10495347,-122.90669,SUTTER LAKESIDE HOSPITAL,5176 HILL ROAD EAST,LAKEPORT,CA,95453,NOT AVAILABLE,GENERAL ACUTE CARE,http://www.sutterlakeside.org,NON-PROFIT,30,IV,Y
38.62709551,-122.864402,HEALDSBURG DISTRICT HOSPITAL,1375 UNIVERSITY STREET,HEALDSBURG,CA,95448,NOT AVAILABLE,GENERAL ACUTE CARE,http://www.nschd.org,GOVERNMENT - DISTRICT/AUTHORITY,43,NOT AVAILABLE,NOT AVAILABLE
39.43123374,-123.8008806,MENDOCINO COAST DISTRICT HOSPITAL,700 RIVER DRIVE,FORT BRAGG,CA,95437,NOT AVAILABLE,GENERAL ACUTE CARE,http://www.mcdh.org,GOVERNMENT - DISTRICT/AUTHORITY,49,NOT AVAILABLE,Y
38.34717995,-122.5186989,SONOMA DEVELOPMENTAL CENTER,15000 ARNOLD DRIVE,ELDRIDGE,CA,95431,(707) 938-6000,GENERAL ACUTE CARE,http://www.dds.ca.gov/sonoma,GOVERNMENT - STATE,1021,NOT AVAILABLE,NOT AVAILABLE
38.93561886,-122.6201445,ST. HELENA HOSPITAL - CLEARLAKE,15630 18TH AVE - HWY 53,CLEARLAKE,CA,95422,NOT AVAILABLE,GENERAL ACUTE CARE,http://www.adventisthealth.org,NON-PROFIT,32,NOT AVAILABLE,NOT AVAILABLE
38.4437493,-122.7017396,SANTA ROSA MEMORIAL HOSPITAL-MONTGOMERY,1165 MONTGOMERY DRIVE,SANTA ROSA,CA,95405,NOT AVAILABLE,GENERAL ACUTE CARE,http://www.stjosephhealth.org,NON-PROFIT,278,II,Y
38.44173065,-122.7024603,SANTA ROSA MEMORIAL HOSPITAL-SOTOYOME,151 SOTOYOME STREET,SANTA ROSA,CA,95405,NOT AVAILABLE,GENERAL ACUTE CARE,http://stjosephhealth.org,NON-PROFIT,60,NOT AVAILABLE,Y
38.47179301,-122.7270644,KAISER FND HOSP - SANTA ROSA,401 BICENTENNIAL WAY,SANTA ROSA,CA,95403,NOT AVAILABLE,GENERAL ACUTE CARE,http://www.kaiserpermanente.org,NON-PROFIT,173,NOT AVAILABLE,NOT AVAILABLE
38.49495922,-122.751872,SUTTER SANTA ROSA REGIONAL HOSPITAL,30 MARK WEST SPRINGS RD.,SANTA ROSA,CA,95403,(707) 576-4000,GENERAL ACUTE CARE,http://www.suttersantarosa.org/,NON-PROFIT,84,NOT AVAILABLE,Y
38.45039782,-122.7716262,AURORA BEHAVIORAL HEALTHCARE-SANTA ROSA,1287 FULTON ROAD,SANTA ROSA,CA,95401,NOT AVAILABLE,PSYCHIATRIC,http://www.aurorasantarosa.com/,PROPRIETARY,95,NOT AVAILABLE,NOT AVAILABLE
37.51231404,-120.8391509,"EMANUEL MEDICAL CENTER, INC",825 DELBON AVENUE,TURLOCK,CA,95380,NOT AVAILABLE,GENERAL ACUTE CARE,http://www.emanuelmedicalcenter.org/,NON-PROFIT,209,NOT AVAILABLE,Y
37.51060891,-120.8405944,BRANDEL MANOR - D/P SNF OF EMANUEL MEDICAL CTR,1801 NORTH OLIVE STREET,TURLOCK,CA,95380,NOT AVAILABLE,GENERAL ACUTE CARE,http://www.emanuelmed.org,NON-PROFIT,145,NOT AVAILABLE,Y
37.74421852,-121.4339297,SUTTER TRACY COMMUNITY HOSPITAL,1420 NORTH TRACY BOULEVARD,TRACY,CA,95376,NOT AVAILABLE,GENERAL ACUTE CARE,http://www.suttertracy.org,NON-PROFIT,81,NOT AVAILABLE,NOT AVAILABLE
37.97723023,-120.3708505,SONORA REGIONAL MEDICAL CENTER - GREENLEY,1000 GREENLEY ROAD,SONORA,CA,95370,NOT AVAILABLE,GENERAL ACUTE CARE,http://www.sonoramedicalcenter.org/,NON-PROFIT,72,NOT AVAILABLE,Y
37.97966734,-120.3907956,SONORA REGIONAL MEDICAL CENTER D/P SNF (UNIT 6 AND 7),179 S. FAIRVIEW LANE,SONORA,CA,95370,NOT AVAILABLE,GENERAL ACUTE CARE,http://www.sonoramedicalcenter.org/,NON-PROFIT,68,NOT AVAILABLE,NOT AVAILABLE
37.9796874,-120.3908013,SONORA REGIONAL MEDICAL CENTER - FAIRVIEW,179 SOUTH FAIRVIEW LANE,SONORA,CA,95370,NOT AVAILABLE,GENERAL ACUTE CARE,http://www.sonoramedicalcenter.org/,NON-PROFIT,12,NOT AVAILABLE,NOT AVAILABLE
37.75916748,-120.8602989,OAKDALE NURSING AND REHABILITATION CENTER,275 SOUTH OAK STREET,OAKDALE,CA,95361,NOT AVAILABLE,REHABILITATION,http://www.oriolhealthcare.com/oakdale-rehabilitation-and-skilled-nursing-center/,PROPRIETARY,115,NOT AVAILABLE,NOT AVAILABLE
37.75761627,-120.8609966,OAK VALLEY DISTRICT HOSPITAL (2-RH),350 SOUTH OAK STREET,OAKDALE,CA,95361,NOT AVAILABLE,GENERAL ACUTE CARE,http://www.oakvalleycares.org,GOVERNMENT - DISTRICT/AUTHORITY,35,NOT AVAILABLE,NOT AVAILABLE
37.70560221,-121.0501568,KAISER FND HOSP-MODESTO,4601 DALE RD,MODESTO,CA,95356,NOT AVAILABLE,GENERAL ACUTE CARE,http://www.kaiserpermanente.org,NON-PROFIT,152,NOT AVAILABLE,Y
37.66832477,-120.9741604,MEMORIAL HOSPITAL MEDICAL CENTER - MODESTO,1700 COFFEE ROAD,MODESTO,CA,95355,NOT AVAILABLE,GENERAL ACUTE CARE,http://www.memorialmedicalcenter.org/,NON-PROFIT,423,II,Y
37.66582401,-120.9222319,DOCTORS MEDICAL CENTER-BEHAVIORAL HEALTH DEPARTMENT,1501 CLAUS ROAD,MODESTO,CA,95355,(209) 557-6300,GENERAL ACUTE CARE,http://www.dmc-modesto.com,NOT AVAILABLE,67,NOT AVAILABLE,NOT AVAILABLE
37.69702773,-120.9757853,HEALTHSOUTH REHABILITATION HOSPITAL OF MODESTO,1303 MABLE AVE,MODESTO,CA,95355,NOT AVAILABLE,LONG TERM CARE,http://healthsouthmodesto.com/,PROPRIETARY,50,NOT AVAILABLE,NOT AVAILABLE
37.66480107,-120.9584999,STANISLAUS SURGICAL HOSPITAL,1421 OAKDALE ROAD,MODESTO,CA,95355,NOT AVAILABLE,GENERAL ACUTE CARE,http://www.stanislaussurgical.com,PROPRIETARY,23,NOT AVAILABLE,NOT AVAILABLE
37.64356628,-120.9909049,CENTRAL VALLEY SPECIALTY HOSPITAL,730 17TH STREET,MODESTO,CA,95354,NOT AVAILABLE,LONG TERM CARE,http://centralvalleyspecialty.org/CVSH/,NOT AVAILABLE,100,NOT AVAILABLE,NOT AVAILABLE
37.6651476,-120.9970207,DOCTORS MEDICAL CENTER,1441 FLORIDA AVENUE,MODESTO,CA,95350,(209) 578-1211,GENERAL ACUTE CARE,http://www.dmc-modesto.com,PROPRIETARY,394,II,Y
37.33985566,-120.4675283,MERCY MEDICAL CENTER - MERCED,333  MERCY AVENUE,MERCED,CA,95340,NOT AVAILABLE,GENERAL ACUTE CARE,http://www.mercymercedcares.org/index.htm,NON-PROFIT,186,NOT AVAILABLE,Y
37.29378408,-120.4734747,MARIE GREEN PSYCHIATRIC CENTER - P H F,300 EAST 15TH STREET,MERCED,CA,95340,NOT AVAILABLE,PSYCHIATRIC,NOT AVAILABLE,GOVERNMENT - LOCAL,16,NOT AVAILABLE,NOT AVAILABLE
37.5001239,-119.9773144,JOHN C FREMONT HEALTHCARE DISTRICT,"5189 HOSPITAL RD., PO BOX 216",MARIPOSA,CA,95338,NOT AVAILABLE,GENERAL ACUTE CARE,http://www.jcf-hospital.com/,PROPRIETARY,34,NOT AVAILABLE,Y
37.79811659,-121.2458864,KAISER FND HOSP-MANTECA,1777 WEST YOSEMITE AVENUE,MANTECA,CA,95336,NOT AVAILABLE,GENERAL ACUTE CARE,http://www.kaiserpermanente.org,NON-PROFIT,99,NOT AVAILABLE,Y
37.80158302,-121.1969169,DOCTORS HOSPITAL OF MANTECA,1205 EAST NORTH STREET,MANTECA,CA,95336,NOT AVAILABLE,GENERAL ACUTE CARE,http://www.doctorsmanteca.com,PROPRIETARY,73,NOT AVAILABLE,NOT AVAILABLE
37.60026659,-120.962973,TELECARE STANISLAUS COUNTY PHF,1904 RICHLAND AVENUE,CERES,CA,95307,NOT AVAILABLE,PSYCHIATRIC,http://www.telecarecorp.com/programs/157,GOVERNMENT - LOCAL,16,NOT AVAILABLE,NOT AVAILABLE
38.19005959,-120.6705756,MARK TWAIN ST. JOSEPH'S HOSPITAL,768 MOUNTAIN RANCH ROAD,SAN ANDREAS,CA,95249,NOT AVAILABLE,GENERAL ACUTE CARE,http://www.marktwainhospital.com,NON-PROFIT,48,NOT AVAILABLE,Y
38.12132334,-121.2868184,LODI MEMORIAL HOSPITAL,975 SOUTH FAIRMONT AVENUE,LODI,CA,95240,NOT AVAILABLE,GENERAL ACUTE CARE,http://www.lodihealth.org,NON-PROFIT,190,NOT AVAILABLE,Y
37.88672574,-121.2826766,SAN JOAQUIN GENERAL HOSPITAL,500 WEST HOSPITAL ROAD,FRENCH CAMP,CA,95231,NOT AVAILABLE,GENERAL ACUTE CARE,http://sjgeneralhospital.com/,GOVERNMENT - LOCAL,196,III,Y
37.97046719,-121.2881828,ST. JOSEPH'S MEDICAL CENTER OF STOCKTON,1800 NORTH CALIFORNIA STREET,STOCKTON,CA,95204,NOT AVAILABLE,GENERAL ACUTE CARE,http://www.stjosephscares.org,NON-PROFIT,364,NOT AVAILABLE,Y
37.9765963,-121.2910709,ST. JOSEPH'S BEHAVIORAL HEALTH CENTER,2510 NORTH CALIFORNIA STREET,STOCKTON,CA,95204,NOT AVAILABLE,PSYCHIATRIC,http://www.stjosephscanhelp.org,NON-PROFIT,35,NOT AVAILABLE,NOT AVAILABLE
37.96167326,-121.300983,DAMERON HOSPITAL,525 WEST ACACIA,STOCKTON,CA,95203,NOT AVAILABLE,GENERAL ACUTE CARE,http://www.dameronhospital.org,NON-PROFIT,202,NOT AVAILABLE,NOT AVAILABLE
37.96712978,-121.2876016,SAN JOAQUIN COUNTY P.H.F.,1212 NORTH CALIFORNIA,STOCKTON,CA,95202,NOT AVAILABLE,PSYCHIATRIC,https://www.sjgov.org/MHS/,GOVERNMENT - LOCAL,16,NOT AVAILABLE,NOT AVAILABLE
37.24902093,-121.7744582,SAN JOSE BEHAVIORAL HEALTH,455 SILICON VALLEY BOULEVARD,SAN JOSE,CA,95138,NOT AVAILABLE,GENERAL ACUTE CARE,https://www.sanjosebh.com,PROPRIETARY,80,NOT AVAILABLE,NOT AVAILABLE
37.31288953,-121.9329627,SANTA CLARA VALLEY MEDICAL CENTER,751 SOUTH BASCOM AVENUE,SAN JOSE,CA,95128,NOT AVAILABLE,GENERAL ACUTE CARE,http://www.scvmed.org,GOVERNMENT - LOCAL,574,"I, II PEDIATRIC",Y
37.32792474,-121.938392,O'CONNOR HOSPITAL,2105 FOREST AVENUE,SAN JOSE,CA,95128,(408) 947-2500,GENERAL ACUTE CARE,http://www.oconnorhospital.org,NON-PROFIT,358,NOT AVAILABLE,NOT AVAILABLE
37.31129603,-121.9150166,CRESTWOOD SAN JOSE PSYCHIATRIC HEALTH FACILITY,"1425 FRUITDALE AVE,SUITE A",SAN JOSE,CA,95128,NOT AVAILABLE,PSYCHIATRIC,http://www.crestwoodbehavioralhealth.com/,PROPRIETARY,16,NOT AVAILABLE,NOT AVAILABLE
37.25207874,-121.9465769,GOOD SAMARITAN HOSPITAL-SAN JOSE,2425 SAMARITAN DRIVE,SAN JOSE,CA,95124,NOT AVAILABLE,GENERAL ACUTE CARE,http://www.goodsamsanjose.com,NON-PROFIT,404,NOT AVAILABLE,Y
37.23980334,-121.8002157,KAISER FND HOSP - SAN JOSE,250 HOSPITAL PARKWAY,SAN JOSE,CA,95119,NOT AVAILABLE,GENERAL ACUTE CARE,http://www.kaiserpermanente.org,NON-PROFIT,247,NOT AVAILABLE,NOT AVAILABLE
37.36231615,-121.8489245,REGIONAL MEDICAL OF SAN JOSE,225 NORTH JACKSON AVENUE,SAN JOSE,CA,95116,NOT AVAILABLE,GENERAL ACUTE CARE,http://www.regionalmedicalsanjose.com,PROPRIETARY,249,II,Y
36.92713067,-121.7929111,WATSONVILLE COMMUNITY HOSPITAL,75 NIELSON STREET,WATSONVILLE,CA,95076,NOT AVAILABLE,GENERAL ACUTE CARE,http://www.watsonvillehospital.com,NON-PROFIT,106,NOT AVAILABLE,NOT AVAILABLE
36.9900207,-121.984045,DOMINICAN HOSPITAL-SANTA CRUZ/SOQUEL,1555 SOQUEL DRIVE,SANTA CRUZ,CA,95065,(831) 462-7700,GENERAL ACUTE CARE,http://www.dignityhealth.org/dominican/,NON-PROFIT,223,NOT AVAILABLE,Y
36.98769976,-121.9774166,SUTTER MATERNITY AND SURGERY CENTER OF SANTA CRUZ,2900 CHANTICLEER AVENUE,SANTA CRUZ,CA,95065,NOT AVAILABLE,GENERAL ACUTE CARE,http://www.suttermatsurg.org,NON-PROFIT,30,NOT AVAILABLE,NOT AVAILABLE
36.97970361,-122.0033095,DOMINICAN HOSPITAL-SANTA CRUZ/FREDERICK,610 FREDERICK STREET,SANTA CRUZ,CA,95062,(831) 457-7100,GENERAL ACUTE CARE,http://www.dominicanhospital.org,NON-PROFIT,57,NOT AVAILABLE,NOT AVAILABLE
36.98336892,-121.9939471,TELECARE SANTA CRUZ PHF,2250 SOQUEL AVE,SANTA CRUZ,CA,95062,NOT AVAILABLE,PSYCHIATRIC,http://www.telecarecorp.com/programs/148,GOVERNMENT - LOCAL,16,NOT AVAILABLE,NOT AVAILABLE
37.33540138,-121.998873,KAISER FND HOSP - SANTA CLARA,700 LAWRENCE EXPRESSWAY,SANTA CLARA,CA,95051,NOT AVAILABLE,GENERAL ACUTE CARE,http://www.kaiserpermanente.org,NON-PROFIT,327,NOT AVAILABLE,Y
37.3363326,-122.0020314,KAISER PERMANENTE P.H.F - SANTA CLARA,3840 HOMESTEAD ROAD,SANTA CLARA,CA,95051,NOT AVAILABLE,PSYCHIATRIC,http://www.kaiserpermanente.org,NON-PROFIT,24,NOT AVAILABLE,NOT AVAILABLE
37.26252715,-121.9694066,EL CAMINO HOSPITAL LOS GATOS,815 POLLARD ROAD,LOS GATOS,CA,95032,NOT AVAILABLE,GENERAL ACUTE CARE,http://www.elcaminohospital.org,NON-PROFIT,143,NOT AVAILABLE,NOT AVAILABLE
37.24471473,-121.9480738,MISSION OAKS HOSPITAL,15891 LOS GATOS-ALMADEN ROAD,LOS GATOS,CA,95032,NOT AVAILABLE,GENERAL ACUTE CARE,http://www.goodsamsanjose.com,PROPRIETARY,70,NOT AVAILABLE,NOT AVAILABLE
36.83420125,-121.3861936,HAZEL HAWKINS MEMORIAL HOSPITAL,911 SUNSET DRIVE,HOLLISTER,CA,95023,NOT AVAILABLE,GENERAL ACUTE CARE,http://www.hazelhawkins.com,GOVERNMENT - DISTRICT/AUTHORITY,119,NOT AVAILABLE,Y
36.83551313,-121.3868211,HAZEL HAWKINS MEMORIAL HOSPITAL D/P SNF,900 SUNSET DRIVE,HOLLISTER,CA,95023,NOT AVAILABLE,GENERAL ACUTE CARE,http://www.hazelhawkins.com,GOVERNMENT - DISTRICT/AUTHORITY,62,NOT AVAILABLE,Y
37.03655836,-121.571371,ST. LOUISE REGIONAL HOSPITAL,9400 NO NAME UNO,GILROY,CA,95020,NOT AVAILABLE,GENERAL ACUTE CARE,http://www.dochs.org,NON-PROFIT,93,NOT AVAILABLE,Y
37.25975739,-121.947554,CHILDRENS RECOVERY CENTER OF NORTHERN CALIFORNIA,3777 SOUTH BASCOM AVENUE,CAMPBELL,CA,95008,NOT AVAILABLE,CHILDREN,http://pedisubacute.com/,NON-PROFIT,31,NOT AVAILABLE,NOT AVAILABLE
38.2546958,-122.6317783,PETALUMA VALLEY HOSPITAL,400 NORTH MC DOWELL BOULEVARD,PETALUMA,CA,94954,NOT AVAILABLE,GENERAL ACUTE CARE,http://www.stjosephhealth.org/About-Us/Facilities/Petaluma-Valley-Hospital.aspx,NON-PROFIT,80,NOT AVAILABLE,Y
38.09925492,-122.5600245,NOVATO COMMUNITY HOSPITAL,180 ROLAND WAY,NOVATO,CA,94945,NOT AVAILABLE,GENERAL ACUTE CARE,http://www.novatocommunity.sutterhealth.org,NON-PROFIT,47,NOT AVAILABLE,NOT AVAILABLE
37.95870622,-122.5524959,KENTFIELD REHABILITATION HOSPITAL,1125 SIR FRANCIS DRAKE BLVD,KENTFIELD,CA,94914,NOT AVAILABLE,GENERAL ACUTE CARE,http://www.kentfieldrehab.com,PROPRIETARY,60,NOT AVAILABLE,NOT AVAILABLE
37.94725336,-122.5358589,MARIN GENERAL HOSPITAL,250 BON AIR ROAD,GREENBRAE,CA,94904,NOT AVAILABLE,GENERAL ACUTE CARE,http://www.maringeneral.org,GOVERNMENT - DISTRICT/AUTHORITY,235,III,NOT AVAILABLE
38.00475446,-122.5545704,KAISER FND HOSP - SAN RAFAEL,99 MONTECILLO ROAD,SAN RAFAEL,CA,94903,NOT AVAILABLE,GENERAL ACUTE CARE,http://www.kaiserpermanente.org,NON-PROFIT,116,NOT AVAILABLE,NOT AVAILABLE
37.93718466,-122.3613784,KAISER FND HOSP - RICHMOND CAMPUS,901 NEVIN,RICHMOND,CA,94804,NOT AVAILABLE,GENERAL ACUTE CARE,http://www.kaiserpermanente.org,NON-PROFIT,50,NOT AVAILABLE,NOT AVAILABLE
37.85587637,-122.2572657,ALTA BATES SUMMIT MED CTR-ALTA BATES CAMPUS,2450 ASHBY STREET,BERKELEY,CA,94705,NOT AVAILABLE,GENERAL ACUTE CARE,http://www.altabatessummit.com,NON-PROFIT,347,NOT AVAILABLE,NOT AVAILABLE
37.86441186,-122.2685776,ALTA BATES SUMMIT MED CTR-HERRICK CAMPUS,2001 DWIGHT WAY,BERKELEY,CA,94704,NOT AVAILABLE,GENERAL ACUTE CARE,http://www.altabatessummit.com,NON-PROFIT,69,NOT AVAILABLE,NOT AVAILABLE
37.82466462,-122.2574667,KAISER FND HOSP - OAKLAND CAMPUS,280 W. MACARTHUR BOULEVARD,OAKLAND,CA,94611,NOT AVAILABLE,GENERAL ACUTE CARE,http://www.kaiserpermanente.org,NON-PROFIT,315,NOT AVAILABLE,NOT AVAILABLE
37.83703736,-122.2674207,CHILDRENS HOSPITAL AND RESEARCH CTR AT OAKLAND,747 52ND STREET,OAKLAND,CA,94609,NOT AVAILABLE,CHILDREN,http://www.childrenshospitaloakland.org,NON-PROFIT,190,I PEDIATRIC,Y
37.82121586,-122.2630606,ALTA BATES SUMMIT MED CTR-SUMMIT CAMPUS-HAWTHORNE,350 HAWTHORNE AVENUE,OAKLAND,CA,94609,NOT AVAILABLE,GENERAL ACUTE CARE,http://www.altabatessummit.com,NON-PROFIT,403,NOT AVAILABLE,NOT AVAILABLE
37.82013961,-122.2640042,ALTA BATES SUMMIT MED CTR-SUMMIT CAMPUS-SUMMIT,3100 SUMMIT STREET,OAKLAND,CA,94609,NOT AVAILABLE,GENERAL ACUTE CARE,http://www.altabatessummit.com,NON-PROFIT,75,NOT AVAILABLE,NOT AVAILABLE
37.82873934,-122.2593071,THUNDER ROAD CHEMICAL DEPENDENCY RECOVERY HOSPITAL,390 40TH STREET,OAKLAND,CA,94609,NOT AVAILABLE,REHABILITATION,http://www.altabatessummit.org/thunderroad/,NON-PROFIT,50,NOT AVAILABLE,NOT AVAILABLE
37.8193271,-122.2640875,MPI CHEMICAL DEPENDENCY RECOVERY HOSPITAL,"3012 SUMMIT STREET,5TH FLOOR",OAKLAND,CA,94609,NOT AVAILABLE,REHABILITATION,http://www.altabatessummit.org/mpi/,NON-PROFIT,24,NOT AVAILABLE,NOT AVAILABLE
37.79880162,-122.2311956,HIGHLAND HOSPITAL,1411 EAST 31ST STREET,OAKLAND,CA,94602,NOT AVAILABLE,GENERAL ACUTE CARE,http://www.highlandahs.org/,GOVERNMENT - DISTRICT/AUTHORITY,286,I,NOT AVAILABLE
37.79069713,-122.2221838,TELECARE HERITAGE PSYCHIATRIC HEALTH FACILITY,2633 EAST 27TH STREET,OAKLAND,CA,94601,NOT AVAILABLE,PSYCHIATRIC,http://www.tbhcare.com/,PROPRIETARY,26,NOT AVAILABLE,NOT AVAILABLE
37.91291021,-122.0412565,JOHN MUIR MEDICAL CENTER-WALNUT CREEK CAMPUS,1601 YGNACIO VALLEY ROAD,WALNUT CREEK,CA,94598,NOT AVAILABLE,GENERAL ACUTE CARE,http://www.jmmdhs.com/index.php/jmmdhs_jmmc.html,NON-PROFIT,554,II,Y
37.89134636,-122.0588393,KAISER FND HOSP - WALNUT CREEK,1425 SOUTH MAIN STREET,WALNUT CREEK,CA,94596,NOT AVAILABLE,GENERAL ACUTE CARE,http://www.kaiserpermanente.org,NON-PROFIT,233,NOT AVAILABLE,NOT AVAILABLE
38.12690208,-122.2483773,KAISER FND HOSP - REHABILITATION CENTER VALLEJO,975 SERENO DRIVE,VALLEJO,CA,94590,NOT AVAILABLE,GENERAL ACUTE CARE,http://www.kaiserpermanente.org,NON-PROFIT,248,NOT AVAILABLE,NOT AVAILABLE
38.13118388,-122.2373586,SUTTER SOLANO MEDICAL CENTER,300 HOSPITAL DRIVE,VALLEJO,CA,94590,NOT AVAILABLE,GENERAL ACUTE CARE,http://www.suttersolano.org,NON-PROFIT,102,NOT AVAILABLE,Y
38.11790375,-122.2488937,ST. HELENA HOSPITAL CENTER FOR BEHAVIORAL HEALTH,525 OREGON STREET,VALLEJO,CA,94590,NOT AVAILABLE,PSYCHIATRIC,http://www.sthelenahospital.org/Behavioral/,NON-PROFIT,61,NOT AVAILABLE,NOT AVAILABLE
38.1306131,-122.2409988,CRESTWOOD SOLANO PSYCHIATRIC HEALTH FACILITY,2201 TUOLUMNE ST,VALLEJO,CA,94589,NOT AVAILABLE,PSYCHIATRIC,http://www.crestwoodbehavioralhealth.com,PROPRIETARY,16,NOT AVAILABLE,NOT AVAILABLE
37.69359647,-121.8803076,VALLEYCARE MEDICAL CENTER,5555 WEST LAS POSITAS BLVD.,PLEASANTON,CA,94588,NOT AVAILABLE,GENERAL ACUTE CARE,http://www.valleycare.com,NON-PROFIT,167,NOT AVAILABLE,Y
37.77587949,-121.9581807,SAN RAMON REGIONAL MEDICAL CENTER,6001 NORRIS CANYON ROAD,SAN RAMON,CA,94583,NOT AVAILABLE,GENERAL ACUTE CARE,http://www.sanramonmedctr.com,GOVERNMENT - LOCAL,123,NOT AVAILABLE,NOT AVAILABLE
37.77459185,-121.957279,SAN RAMON REGIONAL MEDICAL CENTER SOUTH BUILDING,7777 NORRIS CANYON ROAD,SAN RAMON,CA,94583,NOT AVAILABLE,GENERAL ACUTE CARE,http://www.sanramonmedctr.com,PROPRIETARY,64,NOT AVAILABLE,NOT AVAILABLE
37.70768456,-122.11871,ALAMEDA CO MED CTR - FAIRMONT CAMPUS,15400 FOOTHILL BOULEVARD,SAN LEANDRO,CA,94578,NOT AVAILABLE,GENERAL ACUTE CARE,http://www.fairmontahs.org/,GOVERNMENT - DISTRICT/AUTHORITY,159,NOT AVAILABLE,NOT AVAILABLE
37.71228835,-122.1434937,SAN LEANDRO HOSPITAL,13855 EAST 14TH STREET,SAN LEANDRO,CA,94578,NOT AVAILABLE,GENERAL ACUTE CARE,http://edenmedcenter.org,NON-PROFIT,93,NOT AVAILABLE,NOT AVAILABLE
37.70941003,-122.1185459,TELECARE WILLOW ROCK CENTER,2050 FAIRMONT DRIVE,ALAMEDA,CA,94578,NOT AVAILABLE,PSYCHIATRIC,http://www.telecarecorp.com/articles1-271/TheWillowRockCenterIsNowOpen,PROPRIETARY,16,NOT AVAILABLE,NOT AVAILABLE
37.7064062,-122.1646545,KAISER FOUNDATION HOSPITAL - SAN LEANDRO,2500 MERCED STREET,SAN LEANDRO,CA,94577,NOT AVAILABLE,GENERAL ACUTE CARE,http://www.kaiserpermanente.org,NOT AVAILABLE,216,NOT AVAILABLE,NOT AVAILABLE
37.7162326,-122.130564,KINDRED HOSPITAL - SAN FRANCISCO BAY AREA,2800 BENEDICT DRIVE,SAN LEANDRO,CA,94577,NOT AVAILABLE,GENERAL ACUTE CARE,http://www.kindredhospitalsfba.com,PROPRIETARY,99,NOT AVAILABLE,NOT AVAILABLE
38.54254929,-122.4748572,ST. HELENA HOSPITAL,10 WOODLAND RD.,ST. HELENA,CA,94574,NOT AVAILABLE,GENERAL ACUTE CARE,http://www.sthelenahospital.org,NON-PROFIT,151,NOT AVAILABLE,NOT AVAILABLE
38.32450327,-122.2970568,QUEEN OF THE VALLEY HOSPITAL - NAPA,1000 TRANCAS STREET,NAPA,CA,94558,NOT AVAILABLE,GENERAL ACUTE CARE,http://www.thequeen.org,NON-PROFIT,211,III,Y
38.27803987,-122.2670334,NAPA STATE HOSPITAL,2100 NAPA-VALLEJO HIGHWAY,NAPA,CA,94558,NOT AVAILABLE,PSYCHIATRIC,http://www.dmh.ca.gov,GOVERNMENT - STATE,1418,NOT AVAILABLE,NOT AVAILABLE
38.00679801,-122.1328148,CONTRA COSTA REGIONAL MEDICAL CENTER,2500 ALHAMBRA AVENUE,MARTINEZ,CA,94553,NOT AVAILABLE,GENERAL ACUTE CARE,http://www.cchealth.org/medical_center/,GOVERNMENT - LOCAL,167,NOT AVAILABLE,NOT AVAILABLE
37.99436151,-122.1157858,EAST BAY DIVISION - MARTINEZ OUTPATIENT CLINIC,150 MUIR RD,MARTINEZ,CA,94553,(925) 372-2000,MILITARY,http://www.northerncalifornia.va.gov/,GOVERNMENT - FEDERAL,-999,NOT AVAILABLE,N
37.67732014,-121.7817916,VALLEY MEMORIAL HOSPITAL - LIVERMORE,1111 E. STANLEY BOULEVARD,LIVERMORE,CA,94550,NOT AVAILABLE,GENERAL ACUTE CARE,http://www.valleycare.com,NON-PROFIT,75,NOT AVAILABLE,NOT AVAILABLE
37.62555427,-121.7631034,VA MEDICAL CENTER - LIVERMORE DIVISION,4951 ARROYO RD,LIVERMORE,CA,94550,(925) 373-4700,MILITARY,http://www.paloalto.va.gov/,GOVERNMENT - FEDERAL,-999,NOT AVAILABLE,Y
37.69773234,-122.0888691,EDEN MEDICAL CENTER,20103 LAKE CHABOT ROAD,CASTRO VALLEY,CA,94546,NOT AVAILABLE,GENERAL ACUTE CARE,http://www.edenmedcenter.org,NON-PROFIT,130,II,Y
37.63344199,-122.0879125,ST. ROSE HOSPITAL,27200 CALAROGA AVENUE,HAYWARD,CA,94545,NOT AVAILABLE,GENERAL ACUTE CARE,http://www.srhca.org,NON-PROFIT,217,NOT AVAILABLE,NOT AVAILABLE
37.55728288,-121.9798084,WASHINGTON HOSPITAL - FREMONT,2000 MOWRY AVENUE,FREMONT,CA,94538,NOT AVAILABLE,GENERAL ACUTE CARE,http://www.whhs.com,GOVERNMENT - STATE,341,NOT AVAILABLE,Y
37.5466295,-121.9796431,FREMONT HOSPITAL,39001 SUNDALE DRIVE,FREMONT,CA,94538,NOT AVAILABLE,PSYCHIATRIC,http://www.fremonthospital.com,PROPRIETARY,148,NOT AVAILABLE,Y
37.55279037,-121.9750842,KAISER FND HOSP - FREMONT,39400 PASEO PADRE PARKWAY,FREMONT,CA,94538,NOT AVAILABLE,GENERAL ACUTE CARE,http://www.kaiserpermanente.org,NON-PROFIT,106,NOT AVAILABLE,NOT AVAILABLE
38.26183055,-122.0475478,NORTH BAY MEDICAL CENTER,1200 B. GALE WILSON BLVD.,FAIRFIELD,CA,94533,NOT AVAILABLE,GENERAL ACUTE CARE,http://www.northbay.org,NON-PROFIT,132,III,Y
37.95099113,-121.7751382,KAISER FOUND HSP-ANTIOCH,4501 SAND CREEK ROAD,ANTIOCH,CA,94531,NOT AVAILABLE,GENERAL ACUTE CARE,http://www.kaiserpermanente.org,NON-PROFIT,150,NOT AVAILABLE,NOT AVAILABLE
37.98308958,-122.0334968,JOHN MUIR MEDICAL CENTER-CONCORD CAMPUS,2540 EAST STREET,CONCORD,CA,94520,NOT AVAILABLE,GENERAL ACUTE CARE,http://www.johnmuirhealth.com,NON-PROFIT,245,NOT AVAILABLE,NOT AVAILABLE
37.98598836,-122.0371023,JOHN MUIR BEHAVIORAL HEALTH CENTER,2740 GRANT STREET,CONCORD,CA,94520,NOT AVAILABLE,PSYCHIATRIC,http://www.johnmuirhealth.com,NON-PROFIT,73,NOT AVAILABLE,NOT AVAILABLE
37.98223445,-121.8029785,SUTTER DELTA MEDICAL CENTER,3901 LONE TREE WAY,ANTIOCH,CA,94509,NOT AVAILABLE,GENERAL ACUTE CARE,http://www.sutterdelta.org,NON-PROFIT,145,NOT AVAILABLE,NOT AVAILABLE
37.76279436,-122.2542136,ALAMEDA HOSPITAL,2070 CLINTON,ALAMEDA,CA,94501,NOT AVAILABLE,GENERAL ACUTE CARE,http://www.alamedahospital.org,GOVERNMENT - DISTRICT/AUTHORITY,135,NOT AVAILABLE,NOT AVAILABLE
37.77062863,-122.2370243,PARK BRIDGE REHABILITATION AND WELLNESS CENTER,2401 BLANDING AVENUE,ALAMEDA,CA,94501,NOT AVAILABLE,GENERAL ACUTE CARE,NOT AVAILABLE,GOVERNMENT - DISTRICT/AUTHORITY,120,NOT AVAILABLE,NOT AVAILABLE
37.76184594,-122.2540476,ALAMEDA HOSPITAL-SOUTH SHORE CONVALESCENT HOSPITAL,625 WILLOW STREET,ALAMEDA,CA,94501,NOT AVAILABLE,GENERAL ACUTE CARE,http://www.alamedahospital.org,GOVERNMENT - DISTRICT/AUTHORITY,26,NOT AVAILABLE,NOT AVAILABLE
37.53114656,-122.2994948,SAN MATEO MEDICAL CENTER,222 WEST 39TH AVENUE,SAN MATEO,CA,94403,NOT AVAILABLE,GENERAL ACUTE CARE,http://www.sanmateomedicalcenter.org,GOVERNMENT - LOCAL,228,NOT AVAILABLE,NOT AVAILABLE
37.56518478,-122.3265094,MILLS  HEALTH CENTER,100 SOUTH SAN MATEO DRIVE,SAN MATEO,CA,94401,NOT AVAILABLE,GENERAL ACUTE CARE,http://www.mills-peninsula.org/locations/millshealth.html,NON-PROFIT,60,NOT AVAILABLE,NOT AVAILABLE
37.43465244,-122.1748831,STANFORD HOSPITAL,300 PASTEUR DRIVE,PALO ALTO,CA,94305,NOT AVAILABLE,GENERAL ACUTE CARE,http://www.stanfordhospital.com/,NON-PROFIT,613,"I, I PEDIATRIC",Y
37.43600458,-122.17539,LUCILE SALTER PACKARD CHILDREN'S HOSP. AT STANFORD,725 WELCH ROAD,PALO ALTO,CA,94304,NOT AVAILABLE,GENERAL ACUTE CARE,http://www.lpch.org,NON-PROFIT,302,NOT AVAILABLE,Y
37.40535302,-122.1397846,VA MEDICAL CENTER - PALO ALTO DIVISION,3801 MIRANDA AVE,PALO ALTO,CA,94304,(650) 493-5000,MILITARY,http://www.paloalto.va.gov/,GOVERNMENT - FEDERAL,-999,NOT AVAILABLE,Y
37.76548003,-122.3900705,UCSF MEDICAL CENTER AT MISSION BAY,1975 4TH STREET,SAN FRANCISCO,CA,94158,NOT AVAILABLE,GENERAL ACUTE CARE,http://www.ucsfmissionbayhospitals.org/,GOVERNMENT - LOCAL,289,NOT AVAILABLE,Y
37.76347235,-122.4568506,LANGLEY PORTER PSYCHIATRIC INSTITUTE,401 PARNASSUS AVENUE,SAN FRANCISCO,CA,94143,NOT AVAILABLE,PSYCHIATRIC,http://psych.ucsf.edu/lpphc.aspx,PROPRIETARY,67,NOT AVAILABLE,NOT AVAILABLE
37.79548828,-122.4091688,CHINESE HOSPITAL,845 JACKSON STREET,SAN FRANCISCO,CA,94133,NOT AVAILABLE,GENERAL ACUTE CARE,http://www.chinesehospital-sf.org,NON-PROFIT,54,NOT AVAILABLE,NOT AVAILABLE
37.76307685,-122.4578772,UCSF MEDICAL CENTER,505 PARNASSUS AVENUE,SAN FRANCISCO,CA,94122,NOT AVAILABLE,GENERAL ACUTE CARE,https://www.ucsfhealth.org/,GOVERNMENT - LOCAL,580,NOT AVAILABLE,NOT AVAILABLE
37.78229119,-122.5049746,SAN FRANCISCO VA HEALTH CARE SYSTEM,4150 CLEMENT ST,SAN FRANCISCO,CA,94121,NOT AVAILABLE,MILITARY,http://www.sanfrancisco.va.gov/,GOVERNMENT - FEDERAL,-999,NOT AVAILABLE,Y
37.7865092,-122.4560306,CALIFORNIA PACIFIC MED CTR-CALIFORNIA WEST,3700 CALIFORNIA STREET,SAN FRANCISCO,CA,94118,NOT AVAILABLE,GENERAL ACUTE CARE,http://www.cpmc.org,NON-PROFIT,299,NOT AVAILABLE,NOT AVAILABLE
37.77408876,-122.4537516,"ST. MARY'S MEDICAL CENTER, SAN FRANCISCO",450 STANYAN STREET,SAN FRANCISCO,CA,94117,NOT AVAILABLE,GENERAL ACUTE CARE,http://www.stmarysmedicalcenter.org,NON-PROFIT,403,NOT AVAILABLE,NOT AVAILABLE
37.76868428,-122.4345303,CALIFORNIA PACIFIC MED CTR-DAVIES CAMPUS,601 DUBOCE AVENUE,SAN FRANCISCO,CA,94117,(415) 600-6000,GENERAL ACUTE CARE,http://www.cpmc.org,NOT AVAILABLE,223,NOT AVAILABLE,N
37.77403879,-122.45403,KENTFIELD HOSPITAL SAN FRANCISCO,450 STANYAN ST.,SAN FRANCISCO,CA,94117,NOT AVAILABLE,LONG TERM CARE,http://www.kentfieldsanfrancisco.com/,PROPRIETARY,60,NOT AVAILABLE,NOT AVAILABLE
37.77436408,-122.4258734,LAGUNA HONDA HOSPITAL AND REHABILITATION CENTER,375 LAGUNA HONDA BOULEVARD,SAN FRANCISCO,CA,94116,NOT AVAILABLE,GENERAL ACUTE CARE,http://lagunahonda.org/,GOVERNMENT - LOCAL,780,NOT AVAILABLE,NOT AVAILABLE
37.79070454,-122.4312945,CALIFORNIA PACIFIC MED CTR-PACIFIC CAMPUS,2333 BUCHANAN STREET,SAN FRANCISCO,CA,94115,NOT AVAILABLE,GENERAL ACUTE CARE,http://www.cpmc.org,NON-PROFIT,309,NOT AVAILABLE,NOT AVAILABLE
37.78228361,-122.4432534,KAISER FND HOSP - SAN FRANCISCO,2425 GEARY BOULEVARD,SAN FRANCISCO,CA,94115,NOT AVAILABLE,GENERAL ACUTE CARE,http://www.kaiserpermanente.org,NON-PROFIT,247,NOT AVAILABLE,NOT AVAILABLE
37.78491971,-122.4391472,UCSF MEDICAL CENTER AT MOUNT ZION,1600 DIVISADERO STREET,SAN FRANCISCO,CA,94115,NOT AVAILABLE,GENERAL ACUTE CARE,http://www.ucsfhealth.org,GOVERNMENT - LOCAL,140,NOT AVAILABLE,NOT AVAILABLE
37.72777424,-122.430891,JEWISH HOME,302 SILVER AVENUE,SAN FRANCISCO,CA,94112,NOT AVAILABLE,PSYCHIATRIC,http://www.jhsf.org,NON-PROFIT,391,NOT AVAILABLE,NOT AVAILABLE
37.75657562,-122.4057621,PRISCILLA CHAN & MARK ZUCKERBERG SAN FRANCISCO GENERAL HOSPITAL & TRAUMA CENTER,1001 POTRERO AVENUE,SAN FRANCISCO,CA,94110,NOT AVAILABLE,GENERAL ACUTE CARE,https://sfgh.ucsf.edu/,GOVERNMENT - LOCAL,375,I,NOT AVAILABLE
37.74771786,-122.4207679,CALIFORNIA PACIFIC MEDICAL CENTER - ST. LUKE'S CAMPUS,3555 CESAR CHAVEZ STREET,SAN FRANCISCO,CA,94110,NOT AVAILABLE,GENERAL ACUTE CARE,http://www.cpmc.org,NOT AVAILABLE,228,NOT AVAILABLE,NOT AVAILABLE
37.74932237,-122.4568964,ST. FRANCIS MEMORIAL HOSPITAL,900 HYDE STREET,SAN FRANCISCO,CA,94109,NOT AVAILABLE,GENERAL ACUTE CARE,http://www.fcswp.org,NON-PROFIT,288,NOT AVAILABLE,NOT AVAILABLE
37.65968776,-122.43927,KAISER FND HOSP - SOUTH SAN FRANCISCO,1200 EL CAMINO REAL,SOUTH SAN FRANCISCO,CA,94080,NOT AVAILABLE,GENERAL ACUTE CARE,http://www.kaiserpermanente.org,NON-PROFIT,120,NOT AVAILABLE,NOT AVAILABLE
37.48884784,-122.2233901,KAISER FND HOSP - REDWOOD CITY,1100 VETERANS BOULEVARD,REDWOOD CITY,CA,94063,NOT AVAILABLE,GENERAL ACUTE CARE,http://www.kaiserpermanente.org,NON-PROFIT,149,NOT AVAILABLE,NOT AVAILABLE
37.47936502,-122.2548843,SEQUOIA HOSPITAL,170 ALAMEDA DE LAS PULGAS,REDWOOD CITY,CA,94062,NOT AVAILABLE,GENERAL ACUTE CARE,http://www.sequoiahospital.org,NON-PROFIT,208,NOT AVAILABLE,NOT AVAILABLE
37.36945882,-122.0799957,EL CAMINO HOSPITAL,2500 GRANT ROAD,MOUNTAIN VIEW,CA,94040,NOT AVAILABLE,GENERAL ACUTE CARE,http://www.elcaminohospital.org,NON-PROFIT,300,NOT AVAILABLE,NOT AVAILABLE
37.52639145,-122.5072766,SETON MEDICAL CENTER - COASTSIDE,600 MARINE BOULEVARD,MOSS BEACH,CA,94038,NOT AVAILABLE,GENERAL ACUTE CARE,http://www.setonmedicalcenter.org,NON-PROFIT,121,NOT AVAILABLE,NOT AVAILABLE
37.4616441,-122.1591833,MENLO PARK SURGICAL HOSPITAL,570 WILLOW ROAD,MENLO PARK,CA,94025,NOT AVAILABLE,GENERAL ACUTE CARE,http://www.pamf.org/mpsh,NON-PROFIT,16,NOT AVAILABLE,NOT AVAILABLE
37.4652921,-122.1610052,VA MEDICAL CENTER - MENLO PARK DIVISION,795 WILLOW RD,MENLO PARK,CA,94025,(650) 614-9997,MILITARY,http://www.paloalto.va.gov/,GOVERNMENT - FEDERAL,-999,NOT AVAILABLE,N
37.67988504,-122.4742376,SETON MEDICAL CENTER,1900 SULLIVAN AVENUE,DALY CITY,CA,94015,NOT AVAILABLE,GENERAL ACUTE CARE,http://www.setonmedicalcenter.org,NON-PROFIT,357,NOT AVAILABLE,NOT AVAILABLE
37.5955287,-122.3828458,BURLINGAME HEALTH CARE CENTER D/P SNF,1100 TROUSDALE DRIVE,BURLINGAME,CA,94010,NOT AVAILABLE,GENERAL ACUTE CARE,http://www.sanmateomedicalcenter.org,NON-PROFIT,281,NOT AVAILABLE,NOT AVAILABLE
37.59251275,-122.3823236,MILLS-PENINSULA MEDICAL CENTER,1501 TROUSDALE DRIVE,BURLINGAME,CA,94010,NOT AVAILABLE,GENERAL ACUTE CARE,http://www.mills-peninsula.org,NON-PROFIT,241,NOT AVAILABLE,NOT AVAILABLE
33.22065305,-96.91358852,BAYLOR EMERGENCY MEDICAL CENTER AT AUBREY,26791 HIGHWAY 380,AUBREY,TX,76227,(972) 347-2525,GENERAL ACUTE CARE,http://bemcataubrey.com/locations/aubrey/hwy-380,PROPRIETARY,8,NOT AVAILABLE,Y
33.17787453,-97.0914333,MEDICAL CITY DENTON,3535 SOUTH INTERSTATE 35 EAST,DENTON,TX,76210,(940) 384-3535,GENERAL ACUTE CARE,http://www.dentonregional.com,PROPRIETARY,208,LEVEL II,Y
33.17579219,-97.08682238,MAYHILL HOSPITAL,2809 SOUTH MAYHILL ROAD,DENTON,TX,76208,(940) 239-3000,PSYCHIATRIC,http://www.mayhillhospital.com,PROPRIETARY,60,NOT AVAILABLE,NOT AVAILABLE
33.17439097,-97.08712045,INTEGRITY TRANSITIONAL HOSPITAL,2813 SOUTH MAYHILL ROAD,DENTON,TX,76208,(940) 320-2300,LONG TERM CARE,http://www.ithdenton.com,PROPRIETARY,54,NOT AVAILABLE,NOT AVAILABLE
30.28203591,-95.46559063,CORNERSTONE HOSPITAL CONROE,1500 GRAND LAKE DRIVE,CONROE,TX,76208,(936) 523-1800,LONG TERM CARE,http://www.chghospitals.com/conroe/,PROPRIETARY,41,NOT AVAILABLE,NOT AVAILABLE
33.17662147,-97.08734292,THE HEART HOSPITAL BAYLOR DENTON,2801 SOUTH MAHILL ROAD,DENTON,TX,76208,(940) 220-0600,SPECIAL,https://denton.thehearthospitalbaylor.com/Pages/default.aspx,PROPRIETARY,16,NOT AVAILABLE,NOT AVAILABLE
33.17414683,-97.08674805,ATRIUM MEDICAL CENTER,"2813 SOUTH MAYHILL ROAD,2ND FLOOR",DENTON,TX,76208,(940) 320-2300,LONG TERM CARE,http://www.atriumhealthcare.net/,PROPRIETARY,13,NOT AVAILABLE,NOT AVAILABLE
33.21761538,-97.16658896,TEXAS HEALTH PRESBYTERIAN HOSPITAL DENTON,3000 I-35,DENTON,TX,76201,(940) 898-7191,GENERAL ACUTE CARE,http://www.dentonhospital.com,PROPRIETARY,255,NOT AVAILABLE,Y
33.2312854,-97.15644671,UNIVERSITY BEHAVIORAL HEALTH OF DENTON,2026 WEST UNIVERSITY,DENTON,TX,76201,(940) 320-8100,PSYCHIATRIC,http://www.ubhdenton.net,PROPRIETARY,104,NOT AVAILABLE,NOT AVAILABLE
33.21994092,-97.16784483,SELECT REHABILITATION HOSPITAL OF DENTON,2620 SCRIPTURE STREET,DENTON,TX,76201,(940) 297-6500,REHABILITATION,http://www.selectrehab-denton.com/,PROPRIETARY,44,NOT AVAILABLE,Y
32.82908072,-97.21350556,MEDICAL CITY NORTH HILLS,4401 BOOTH CALLOWAY ROAD,NORTH RICHLAND HILLS,TX,76180,(817) 255-1000,GENERAL ACUTE CARE,http://northhillshospital.com/,PROPRIETARY,176,LEVEL III,Y
32.90029252,-97.31392872,MEDICAL CENTER OF ALLIANCE,3101 NORTH TARRANT PARKWAY,FORT WORTH,TX,76177,(817) 639-1100,GENERAL ACUTE CARE,http://medicalcityalliance.com/,PROPRIETARY,55,NOT AVAILABLE,Y
32.89687799,-97.31290555,PARKWAY SURGICAL AND CARDIOVASCULAR HOSPITAL,3200 NORTH TARRANT PARKWAY,FORT WORTH,TX,76177,(817) 502-7300,SPECIAL,https://www.parkwaysurgicalhospital.com/,PROPRIETARY,12,NOT AVAILABLE,Y
32.65783561,-97.42107595,TEXAS HEALTH HARRIS METHODIST HOSPITAL SOUTHWEST FORT WORTH,6100 HARRIS PARKWAY,FORT WORTH,TX,76132,(817) 433-5000,GENERAL ACUTE CARE,http://www.texashealth.org/southwestfw,NON-PROFIT,222,NOT AVAILABLE,Y
32.67905415,-97.42120446,LIFECARE HOSPITALS OF FORT WORTH,6201 OVERTON RIDGE BOULEVARD,FORT WORTH,TX,76132,(817) 370-6078,LONG TERM CARE,http://www.lifecare-hospitals.com/hospital/ftworth,PROPRIETARY,80,NOT AVAILABLE,NOT AVAILABLE
32.665697,-97.42370538,KINDRED HOSPITAL - TARRANT COUNTY - FORT WORTH SOUTHWEST,7800 OAKMONT BOULEVARD,FORT WORTH,TX,76132,(817) 346-0094,LONG TERM CARE,http://www.kindredhospitalfwsw.com/,PROPRIETARY,80,NOT AVAILABLE,NOT AVAILABLE
32.6620118,-97.41279008,HEALTHSOUTH CITY VIEW REHABILITATION HOSPITAL,6701 OAKMONT BOULEVARD,FORT WORTH,TX,76132,(817) 370-4700,REHABILITATION,http://www.healthsouthcityview.com/,PROPRIETARY,62,NOT AVAILABLE,NOT AVAILABLE
32.68022009,-97.41917002,WELLBRIDGE HOSPITAL OF FORT WORTH,6200 OVERTON RIDGE BLVD,FORT WORTH,TX,76132,(817) 361-1991,PSYCHIATRIC,http://oceansfortworth.com/,PROPRIETARY,48,NOT AVAILABLE,NOT AVAILABLE
32.65421034,-97.41803838,BAYLOR INSTITUTE FOR REHABILITATION AT FORT WORTH,6601 HARRIS PARKWAY,FORT WORTH,TX,76132,(817) 433-9600,REHABILITATION,http://www.baylorhealth.com/PhysiciansLocations/BIR/Pages/Default.aspx?cmpid=r_Rehab,PROPRIETARY,42,NOT AVAILABLE,NOT AVAILABLE
32.64653072,-97.41869014,USMD HOSPITAL AT FORT WORTH,5900 DIRKS ROAD,FORT WORTH,TX,76132,(817) 433-9100,SPECIAL,http://www.usmdfortworth.com/,PROPRIETARY,8,NOT AVAILABLE,NOT AVAILABLE
32.6398134,-97.41289763,MESA SPRINGS,5560 MESA SPRINGS DRIVE,FORT WORTH,TX,76123,(817) 292-4600,PSYCHIATRIC,http://www.mesasprings.com/,PROPRIETARY,72,NOT AVAILABLE,NOT AVAILABLE
32.58662808,-97.31695511,TEXAS HEALTH HUGULEY HOSPITAL,11801 SOUTH FREEWAY,FORT WORTH,TX,76115,(817) 293-9110,GENERAL ACUTE CARE,http://www.texashealthhuguley.org/,NON-PROFIT,356,LEVEL IV,Y
32.70806442,-97.40231314,TEXAS HEALTH HOSPITAL CLEARFORK,5400 CLEARFORK MAIN ST,FORT WORTH,TX,76109,(817) 433-7010,GENERAL ACUTE CARE,https://www.texashealth.org/clearfork/Pages/default.aspx,NON-PROFIT,54,NOT AVAILABLE,NOT AVAILABLE
32.72708003,-97.32710128,JOHN PETER SMITH HOSPITAL,1500 SOUTH MAIN STREET,FORT WORTH,TX,76104,(817) 921-3431,GENERAL ACUTE CARE,http://www.jpshealthnet.org/About-JPS/locations/jps-hospital.aspx,GOVERNMENT - DISTRICT/AUTHORITY,567,LEVEL I,Y
32.73675567,-97.33899698,TEXAS HEALTH HARRIS METHODIST HOSPITAL FORT WORTH,1301 PENNSYLVANIA AVENUE,FORT WORTH,TX,76104,(817) 250-2000,GENERAL ACUTE CARE,http://www.texashealth.org/fortworth,NON-PROFIT,726,LEVEL II,Y
32.73707173,-97.34140504,COOK CHILDREN'S MEDICAL CENTER,801 SEVENTH AVENUE,FORT WORTH,TX,76104,(682) 885-4340,CHILDREN,http://www.cookchildrens.org,NON-PROFIT,430,LEVEL II,Y
32.73566902,-97.34527531,MEDICAL CITY FORT WORTH,900 EIGHTH AVENUE,FORT WORTH,TX,76104,(817) 336-2100,GENERAL ACUTE CARE,http://www.plazamedicalcenter.com,PROPRIETARY,320,NOT AVAILABLE,Y
32.73577378,-97.34335383,KINDRED HOSPITAL - FORT WORTH,815 EIGHTH AVENUE,FORT WORTH,TX,76104,(817) 332-4812,LONG TERM CARE,http://www.kindredfortworth.com/,PROPRIETARY,67,NOT AVAILABLE,Y
32.74074231,-97.34137684,TEXAS REHABILITATION HOSPITAL OF FORT WORTH,425 ALABAMA AVENUE,FORT WORTH,TX,76104,(817) 820-3400,REHABILITATION,NOT AVAILABLE,PROPRIETARY,66,NOT AVAILABLE,NOT AVAILABLE
32.73393445,-97.32864083,JPS HEALTH NETWORK - TRINITY SPRINGS NORTH,1000 ST LOUIS AVENUE,FORTH WORTH,TX,76104,(817) 702-1088,PSYCHIATRIC,http://www.jpshealthnet.org/,NON-PROFIT,36,NOT AVAILABLE,N
32.73685764,-97.34897946,BAYLOR SURGICAL HOSPITAL AT FORT WORTH,750 12TH AVENUE,FORT WORTH,TX,76104,(682) 703-5600,GENERAL ACUTE CARE,http://bshfw.com/,PROPRIETARY,34,NOT AVAILABLE,NOT AVAILABLE
32.73670911,-97.33988601,TEXAS HEALTH SPECIALTY HOSPITAL FORT WORTH,"1301 PENNSYLVANIA AVENUE,4TH FLOOR",FORT WORTH,TX,76104,(817) 250-5500,LONG TERM CARE,http://www.texashealth.org/SpecialtyHospital,NON-PROFIT,15,NOT AVAILABLE,Y
32.747384,-97.3395734,HEALTHSOUTH REHABILITATION HOSPITAL OF FORTH WORTH,1212 WEST LANCASTER,FORT WORTH,TX,76102,(817) 870-2336,REHABILITATION,http://www.healthsouthfortworth.com/,PROPRIETARY,60,NOT AVAILABLE,NOT AVAILABLE
32.66506801,-97.41721975,BAYLOR SCOTT & WHITE ALL SAINTS MEDICAL CENTER FORT WORTH,1400 8TH AVENUE,FORT WORTH,TX,76101,(817) 926-2544,GENERAL ACUTE CARE,http://www.baylorhealth.com/PhysiciansLocations/AllSaints/Pages/Default.aspx,NON-PROFIT,572,LEVEL III,Y
32.9571804,-97.14523798,METHODIST SOUTHLAKE HOSPITAL,421 EAST HIGHWAY 114,SOUTHLAKE,TX,76092,(817) 865-4400,GENERAL ACUTE CARE,https://methodistsouthlake.com/,PROPRIETARY,54,NOT AVAILABLE,NOT AVAILABLE
32.93951348,-97.12813997,TEXAS HEALTH HARRIS METHODIST HOSPITAL SOUTHLAKE,1545 SOUTHLAKE BOULEVARD,SOUTHLAKE,TX,76092,(817) 748-8780,GENERAL ACUTE CARE,http://www.texashealthsouthlake.com,PROPRIETARY,16,NOT AVAILABLE,NOT AVAILABLE
32.74811822,-97.78581052,WEATHERFORD REGIONAL MEDICAL CENTER,713 EAST ANDERSON STREET,WEATHERFORD,TX,76086,(682) 582-1771,GENERAL ACUTE CARE,http://www.weatherfordregional.com,PROPRIETARY,99,NOT AVAILABLE,Y
32.75062142,-97.78774264,WEATHERFORD REHABILITATION HOSPITAL LLC,703 EUREKA ST,WEATHERFORD,TX,76086,(214) 472-4101,REHABILITATION,http://www.weatherfordrehab.com/,PROPRIETARY,26,NOT AVAILABLE,N
32.79892076,-98.14509078,PALO PINTO GENERAL HOSPITAL,400 SOUTHWEST 25TH AVENUE,MINERAL WELLS,TX,76067,(940) 325-7891,GENERAL ACUTE CARE,http://www.ppgh.com,GOVERNMENT - DISTRICT/AUTHORITY,74,LEVEL IV,Y
32.56798994,-97.09444484,METHODIST MANSFIELD MEDICAL CENTER,2700 EAST BROAD STREET,MANSFIELD,TX,76063,(682) 242-6000,GENERAL ACUTE CARE,http://www.methodisthealthsystem.org/mansfield,NON-PROFIT,254,NOT AVAILABLE,Y
32.59903863,-97.14435357,KINDRED HOSPITAL - MANSFIELD,1802 HIGHWAY 157 NORTH,MANSFIELD,TX,76063,(817) 473-6101,LONG TERM CARE,http://www.kindredmansfield.com,PROPRIETARY,55,NOT AVAILABLE,NOT AVAILABLE
32.59672241,-97.14487705,BAYLOR EMERGENCY MEDICAL CENTER,"1776 NORTH US 287,SUITE 100",MANSFIELD,TX,76063,(214) 294-6300,GENERAL ACUTE CARE,http://www.bayloremc.com/,PROPRIETARY,8,NOT AVAILABLE,N
32.84301691,-97.18803686,SAINT CAMILLUS MEDICAL CENTER,1612 HURST TOWN CENTER DRIVE,HURST,TX,76054,(817) 519-3700,GENERAL ACUTE CARE,https://saintcamillusmedicalcenter.com/,PROPRIETARY,23,NOT AVAILABLE,NOT AVAILABLE
32.86322983,-97.18541568,COOK CHILDREN'S NORTHEAST HOSPITAL,6316 PRECINCT LINE ROAD,HURST,TX,76054,(817) 605-2500,CHILDREN,http://www.cookchildrens.org/AboutUs/Companies/Pages/NortheastHospital.aspx,PROPRIETARY,3,NOT AVAILABLE,NOT AVAILABLE
32.93443023,-97.0943835,BAYLOR SCOTT & WHITE MEDICAL CENTER AT GRAPEVINE,1650 WEST COLLEGE STREET,GROESBECK,TX,76051,(817) 481-1588,GENERAL ACUTE CARE,http://www.baylorhealth.com/PhysiciansLocations/Grapevine/Pages/Default.aspx,NON-PROFIT,314,NOT AVAILABLE,Y
32.88952645,-97.09804628,SAGECREST HOSPITAL GRAPEVINE,4201 WILLIAM D TATE AVENUE,GROVES,TX,76051,(817) 288-1300,LONG TERM CARE,http://www.ethicusgrapevine.com,PROPRIETARY,60,NOT AVAILABLE,NOT AVAILABLE
32.43248931,-97.8038485,LAKE GRANBURY MEDICAL CENTER,1310 PALUXY ROAD,GREENVILLE,TX,76048,(817) 573-2273,GENERAL ACUTE CARE,http://www.lakegranburymedicalcenter.com/Lake-Granbury-Medical-Center/Home.aspx,PROPRIETARY,83,LEVEL IV,Y
32.24198129,-97.7469003,GLEN ROSE MEDICAL CENTER,1021 HOLDEN STREET,GLEN ROSE,TX,76043,(254) 897-2215,GENERAL ACUTE CARE,http://www.glenrosemedicalcenter.com,GOVERNMENT - DISTRICT/AUTHORITY,16,NOT AVAILABLE,Y
32.88879527,-97.1511153,BAYLOR EMERGENCY MEDICAL CENTER,5500 COLLEYVILLE BOULEVARD,COLLEYVILLE,TX,76034,(214) 294-6350,GENERAL ACUTE CARE,http://www.bayloremc.com/,PROPRIETARY,8,NOT AVAILABLE,N
32.33199753,-97.43856037,TEXAS HEALTH HARRIS METHODIST HOSPITAL CLEBURNE,201 WALLS DRIVE,CLEBURNE,TX,76033,(817) 641-2551,GENERAL ACUTE CARE,http://www.texashealth.org,NON-PROFIT,137,LEVEL IV,Y
32.57542408,-97.32118572,BAYLOR EMERGENCY MEDICAL CENTER,"12500 SOUTH FREEWAY,SUITE 100",BURLESON,TX,76028,(214) 294-6250,GENERAL ACUTE CARE,http://www.bayloremc.com/,PROPRIETARY,8,NOT AVAILABLE,N
32.83515497,-97.1231367,TEXAS HEALTH HARRIS METHODIST HOSPITAL HURST-EULESS-BEDFORD,1600 HOSPITAL PARKWAY,BEDFORD,TX,76022,(817) 848-4602,GENERAL ACUTE CARE,http://www.texashealth.org,NON-PROFIT,246,LEVEL III,Y
32.83458837,-97.12246905,TEXAS HEALTH SPRINGWOOD HOSPITAL HURST-EULESS-BEDFORD,2717 TIBBETS DRIVE,BEDFORD,TX,76022,(817) 848-7771,PSYCHIATRIC,NOT AVAILABLE,NON-PROFIT,70,NOT AVAILABLE,NOT AVAILABLE
32.84533965,-97.1132574,HEALTHSOUTH REHABILITATION HOSPITAL OF THE MID-CITIES,2304 STATE HIGHWAY 121,BEDFORD,TX,76021,(817) 870-2336,REHABILITATION,http://www.healthsouthmidcities.com/,PROPRIETARY,60,NOT AVAILABLE,NOT AVAILABLE
32.88096648,-97.53309865,TEXAS HEALTH HARRIS METHODIST HOSPITAL AZLE,108 DENVER TRAIL,AZLE,TX,76020,(817) 444-8600,GENERAL ACUTE CARE,http://www.texashealth.org/Azle,NON-PROFIT,36,LEVEL IV,Y
32.67980941,-97.11791224,USMD HOSPITAL AT ARLINGTON,801 WEST I-20,ARLINGTON,TX,76017,(817) 472-3400,SPECIAL,http://www.usmdarlington.com,PROPRIETARY,34,NOT AVAILABLE,NOT AVAILABLE
32.69232531,-97.11271638,MEDICAL CENTER OF ARLINGTON,3301 MATLOCK ROAD,ARLINGTON,TX,76015,(817) 465-3241,GENERAL ACUTE CARE,http://www.medicalcenterarlington.com,PROPRIETARY,342,LEVEL III,Y
32.69377148,-97.11825624,HEALTHSOUTH REHABILITATION HOSPITAL OF ARLINGTON,3200 MATLOCK ROAD,ARLINGTON,TX,76015,(817) 468-4000,REHABILITATION,http://www.healthsoutharlington.com,PROPRIETARY,85,NOT AVAILABLE,Y
32.68212164,-97.11936982,TEXAS REHABILITATION HOSPITAL OF ARLINGTON,900 W ARBROOK BLVD,ARLINGTON,TX,76015,(682) 308-9867,REHABILITATION,http://www.texasrehabarlington.com/,PROPRIETARY,40,NOT AVAILABLE,NOT AVAILABLE
32.68289778,-97.11697677,BAYLOR ORTHOPEDIC AND SPINE HOSPITAL AT ARLINGTON,707 HIGHLANDER BOULEVARD,ARLINGTON,TX,76015,(817) 583-7100,SPECIAL,http://www.baylorarlington.com/,PROPRIETARY,24,NOT AVAILABLE,NOT AVAILABLE
32.74889729,-97.11581999,TEXAS HEALTH ARLINGTON MEMORIAL HOSPITAL,800 WEST RANDOL MILL ROAD,ARLINGTON,TX,76012,(817) 960-6535,GENERAL ACUTE CARE,http://www.arlingtonmemorial.org,NON-PROFIT,369,LEVEL IV,Y
32.74750293,-97.11722863,TEXAS HEALTH HEART & VASCULAR HOSPITAL  ARLINGTON,800 W. RANDOL MILL  RD.,ARLINGTON,TX,76012,(817) 960-3500,SPECIAL,http://www.texashealth.org/arlington,NON-PROFIT,48,NOT AVAILABLE,NOT AVAILABLE
32.75085193,-97.11322999,MILLWOOD HOSPITAL,1011 NORTH COOPER STREET,ARLINGTON,TX,76011,(817) 404-2287,PSYCHIATRIC,http://www.millwoodhospital.com/,PROPRIETARY,122,NOT AVAILABLE,NOT AVAILABLE
32.75055987,-97.11406781,KINDRED HOSPITAL - TARRANT COUNTY,1000 NORTH COOPER STREET,ARLINGTON,TX,76011,(817) 548-3400,LONG TERM CARE,http://www.kindredhospitalarl.com/,PROPRIETARY,68,NOT AVAILABLE,NOT AVAILABLE
32.62799796,-97.17785112,SUNDANCE HOSPITAL,7000 US HIGHWAY 287,ARLINGTON,TX,76001,(817) 222-9191,PSYCHIATRIC,NOT AVAILABLE,PROPRIETARY,116,NOT AVAILABLE,NOT AVAILABLE
30.77603582,-94.42763632,TYLER COUNTY HOSPITAL,1100 WEST BLUFF STREET,WOODVILLE,TX,75979,(409) 283-6400,GENERAL ACUTE CARE,http://www.tchospital.us,GOVERNMENT - DISTRICT/AUTHORITY,49,LEVEL IV,Y
31.53261587,-94.10300693,CHI ST LUKES HEALTH MEMORIAL SAN AUGUSTINE,511 E HOSPITAL STREET,SAN AUGUSTINE,TX,75972,(936) 275-3446,GENERAL ACUTE CARE,http://www.memorialhealth.org,NON-PROFIT,18,NOT AVAILABLE,Y
31.65314431,-94.65387312,NACOGDOCHES MEDICAL CENTER,4920 N. E. STALLINGS DRIVE,NACOGDOCHES,TX,75965,(936) 569-9481,GENERAL ACUTE CARE,http://www.nacmedicalcenter.com,PROPRIETARY,153,NOT AVAILABLE,Y
31.61264109,-94.64887739,NACOGDOCHES MEMORIAL HOSPITAL,1204 NORTH MOUND STREET,NACOGDOCHES,TX,75961,(936) 559-5156,GENERAL ACUTE CARE,http://www.nacmem.org,GOVERNMENT - DISTRICT/AUTHORITY,216,LEVEL III,Y
31.61197484,-94.64665259,CECIL R BOMAR REHABILITATION CENTER,707 WOOD STREET,NACOGDOCHES,TX,75961,(936) 564-7422,REHABILITATION,https://www.nacmem.org/cecil-bomar-rehabilitation-center/,GOVERNMENT - DISTRICT/AUTHORITY,21,NOT AVAILABLE,NOT AVAILABLE
30.90789453,-94.00955331,CHRISTUS JASPER MEMORIAL HOSPITAL,1275 MARVIN HANCOCK DRIVE,JASPER,TX,75951,(409) 384-5461,GENERAL ACUTE CARE,http://www.christusjasper.org,NON-PROFIT,59,LEVEL IV,Y
31.33380873,-93.86296451,SABINE COUNTY HOSPITAL,2301 WORTH ST,HEMPHILL,TX,75948,NOT AVAILABLE,CRITICAL ACCESS,http://sabinecountyhospital.com/,PROPRIETARY,25,LEVEL IV,Y
31.32839947,-94.75405884,WOODLAND HEIGHTS MEDICAL CENTER,505 S. JOHN REDDITT DR.,LUFKIN,TX,75904,(936) 637-8501,GENERAL ACUTE CARE,http://www.woodlandheights.net,PROPRIETARY,149,NOT AVAILABLE,Y
31.33628998,-94.74084706,CHI ST LUKES HEALTH MEMORIAL SPECIALTY HOSPITAL,"1201 WEST FRANK AVENUE,SUITE 5D",LUFKIN,TX,75904,(936) 639-7975,LONG TERM CARE,http://www.memorialhealth.us/,NON-PROFIT,26,NOT AVAILABLE,Y
31.33619133,-94.74185468,CHI ST LUKES HEALTH MEMORIAL LUFKIN,1201 WEST FRANK AVENUE,LUFKIN,TX,75902,(936) 634-8111,GENERAL ACUTE CARE,http://www.memorialhealth.us/,NON-PROFIT,271,LEVEL IV,Y
31.30707384,-94.74573876,OCEANS BEHAVIORAL HOSPITAL OF LUFKIN,302 GLOBBERS KNOB ROAD,LUFKIN,TX,75902,(936) 632-2276,PSYCHIATRIC,http://oceanslufkin.com/,PROPRIETARY,24,NOT AVAILABLE,NOT AVAILABLE
30.95686367,-95.38104923,EAST TEXAS MEDICAL CENTER TRINITY,317 PROSPECT DRIVE,TRINITY,TX,75862,(936) 744-1127,GENERAL ACUTE CARE,http://www.etmc.org,NON-PROFIT,45,NOT AVAILABLE,Y
31.72534374,-96.17059823,FREESTONE MEDICAL CENTER,125 NEWMAN STREET,FAIRFIELD,TX,75840,(903) 389-1612,GENERAL ACUTE CARE,http://www.etmc.org,NON-PROFIT,37,NOT AVAILABLE,Y
32.08363128,-96.50359892,NAVARRO REGIONAL HOSPITAL,3201 TEXAS 22,CORSICANA,TX,75835,(903) 654-6805,GENERAL ACUTE CARE,http://www.navarrohospital.com,PROPRIETARY,162,LEVEL IV,Y
31.73259668,-95.62722756,PALESTINE REGIONAL MEDICAL CENTER,2900 SOUTH LOOP 256,PALESTINE,TX,75801,(903) 731-1184,GENERAL ACUTE CARE,http://www.palestineregional.com/,PROPRIETARY,86,LEVEL III,Y
31.7384786,-95.64436996,PALESTINE REGIONAL REHABILITATION AND PSYCHIATRIC CAMPUS,4000 TEXAS 256 LOOP,PALESTINE,TX,75801,(903) 731-1000,REHABILITATION,http://www.palestineregional.com/services/rehabilitation.aspx,PROPRIETARY,70,NOT AVAILABLE,NOT AVAILABLE
31.80838759,-95.15774878,RUSK STATE HOSPITAL,805 NORTH DICKINSON DRIVE,RUSK,TX,75785,NOT AVAILABLE,PSYCHIATRIC,http://www.dshs.state.tx.us/mhhospitals/RuskSH/default.shtm,GOVERNMENT - STATE,330,NOT AVAILABLE,NOT AVAILABLE
32.79706946,-95.44291819,EAST TEXAS MEDICAL CENTER - QUITMAN,117 WINNSBORO STREET,QUITMAN,TX,75783,(903) 763-6330,CRITICAL ACCESS,http://www.etmc.org/etmcquitman/,NON-PROFIT,25,LEVEL IV,Y
31.9602855,-95.27039992,EAST TEXAS MEDICAL CENTER JACKSONVILLE,501 SOUTH RAGSDALE STREET,JACKSONVILLE,TX,75766,(903) 541-5100,GENERAL ACUTE CARE,http://www.etmc.org,NON-PROFIT,74,LEVEL IV,Y
31.93852592,-95.24777436,CHRISTUS MOTHER FRANCES HOSPITAL JACKSONVILLE,2026 SOUTH JACKSON,JACKSONVILLE,TX,75766,(903) 541-4500,CRITICAL ACCESS,https://www.tmfhc.org/maps-and-locations/locations-profile/?id=9,NON-PROFIT,25,LEVEL IV,Y
32.1694447,-95.8462337,EAST TEXAS MEDICAL CENTER ATHENS,2000 SOUTH PALESTINE STREET,ATHENS,TX,75751,(903) 676-1191,GENERAL ACUTE CARE,http://www.etmc.org,NON-PROFIT,117,LEVEL IV,Y
32.33847952,-95.2907682,EAST TEXAS MEDICAL CENTER,1000 SOUTH BECKHAM AVENUE,TYLER,TX,75711,(903) 535-6215,GENERAL ACUTE CARE,http://www.etmc.org,NON-PROFIT,427,LEVEL I,Y
32.33835568,-95.29103688,EAST TEXAS MEDICAL CENTER SPECIALTY HOSPITAL,"1000 SOUTH BECKHAM AVENUE,5TH FLOOR",TYLER,TX,75711,(903) 596-3004,LONG TERM CARE,http://www.etmc.org,NON-PROFIT,36,NOT AVAILABLE,NOT AVAILABLE
32.42595009,-95.21342841,UNIVERSITY OF TEXAS HEALTH CENTER - TYLER,11937 HIGHWAY 271 NORTH,TYLER,TX,75708,NOT AVAILABLE,GENERAL ACUTE CARE,http://www.uthct.edu,GOVERNMENT - STATE,123,LEVEL IV,Y
32.25806171,-95.30890277,CHRISTUS MOTHER FRANCES HOSPITAL - SOUTH TYLER,8389 S BROADWAY AVENUE,TYLER,TX,75703,(903) 606-6500,GENERAL ACUTE CARE,https://www.tmfhc.org/maps-and-locations/locations-profile/christus-mother-frances-hospital-south-tyler/,NON-PROFIT,8,NOT AVAILABLE,NOT AVAILABLE
32.34276945,-95.29164026,CHRISTUS MOTHER FRANCES HOSPITAL - TYLER,800 EAST DAWSON,TYLER,TX,75701,(903) 531-5400,GENERAL ACUTE CARE,http://www.tmfhs.org/MotherFrancesHospitalTyler,NON-PROFIT,474,LEVEL II,Y
32.31119781,-95.2487673,EAST TEXAS MEDICAL CENTER BEHAVIORAL HEALTH CENTER,4101 UNIVERSITY BOULEVARD,TYLER,TX,75701,(903) 266-2253,PSYCHIATRIC,http://www.etmc.org/location/etmc-behavioral-health-center-in-tyler/,NON-PROFIT,75,NOT AVAILABLE,NOT AVAILABLE
32.31487664,-95.2777701,CHRISTUS TRINITY MOTHER FRANCES REHABILITATION HOSPITAL,3131 TROUP HIGHWAY,TYLER,TX,75701,(903) 510-7000,REHABILITATION,http://www.tmfrehabhospital.com,PROPRIETARY,74,NOT AVAILABLE,NOT AVAILABLE
32.34262743,-95.29085002,TYLER CONTINUE CARE HOSPITAL,"800 EAST DAWSON,4TH FLOOR",TYLER,TX,75701,(903) 531-4943,LONG TERM CARE,http://www.continuecare.org,NON-PROFIT,51,NOT AVAILABLE,Y
32.33688776,-95.291956,EAST TEXAS MEDICAL CENTER REHABILITATION HOSPITAL,701 OLYMPIC PLAZA CIRCLE,TYLER,TX,75701,(903) 596-3000,REHABILITATION,http://www.etmc.org,NON-PROFIT,49,NOT AVAILABLE,NOT AVAILABLE
32.32915158,-95.29852291,TEXAS SPINE AND JOINT HOSPITAL,1814 ROSELAND BOULEVARD,TYLER,TX,75701,(903) 525-3300,SPECIAL,http://www.tsjh.org,PROPRIETARY,20,NOT AVAILABLE,NOT AVAILABLE
33.03304598,-94.95905399,EAST TEXAS MEDICAL CENTER PITTSBURG,2701 U.S. HWY. 271 NORTH,PITTSBURG,TX,75686,NOT AVAILABLE,CRITICAL ACCESS,http://www.etmc.org/newpittsburg.htm,NON-PROFIT,25,LEVEL IV,Y
32.5368065,-94.36946192,GOOD SHEPHERD MEDICAL CENTER - MARSHALL,811 SOUTH WASHINGTON AVENUE,MARSHALL,TX,75671,(903) 927-6000,GENERAL ACUTE CARE,http://www.gsmcmarshall.org,NON-PROFIT,149,LEVEL IV,Y
32.37353582,-94.86804406,ALLEGIANCE SPECIALTY HOSPITAL OF KILGORE,1612 SOUTH HENDERSON BOULEVARD,KILGORE,TX,75662,(903) 984-3505,LONG TERM CARE,http://www.ahmgt.com,PROPRIETARY,60,NOT AVAILABLE,Y
32.16095,-94.79561836,EAST TEXAS MEDICAL CENTER HENDERSON,300 WILSON STREET,HENDERSON,TX,75652,(903) 657-7541,GENERAL ACUTE CARE,http://www.etmc.org/etmchenderson/,NON-PROFIT,96,LEVEL IV,Y
32.1658826,-94.34659601,EAST TEXAS MEDICAL CENTER - CARTHAGE,409 WEST COTTAGE ROAD,CARTHAGE,TX,75633,(903) 693-3841,GENERAL ACUTE CARE,http://www.etmc.org/etmccarthage.htm,NON-PROFIT,49,LEVEL IV,Y
32.53288504,-94.7305141,LONGVIEW REGIONAL MEDICAL CENTER,2901 N 4TH STREET,LONGVIEW,TX,75607,(903) 758-1818,GENERAL ACUTE CARE,http://www.longviewregional.com,PROPRIETARY,230,LEVEL III,Y
32.56443086,-94.76403545,MAGNOLIA BEHAVIORAL HOSPITAL OF EAST TEXAS,22 BERMUDA LANE,LONGVIEW,TX,75605,(903) 291-3456,PSYCHIATRIC,http://www.longviewhospital.com,PROPRIETARY,76,NOT AVAILABLE,NOT AVAILABLE
32.53733451,-94.73455975,OCEANS BEHAVIORAL HEALTHCARE OF LONGVIEW,615 CLINIC DRIVE,LONGVIEW,TX,75605,(318) 797-6785,PSYCHIATRIC,http://oceanslongview.com/,PROPRIETARY,24,NOT AVAILABLE,NOT AVAILABLE
32.50074986,-94.72985399,CHRISTUS GOOD SHEPHERD MEDICAL CENTER - LONGVIEW,700 EAST MARSHALL AVENUE,LONGVIEW,TX,75601,(903) 315-1811,GENERAL ACUTE CARE,http://www.gsmc.org,NON-PROFIT,425,LEVEL III,Y
32.50051191,-94.73066699,SELECT SPECIALTY HOSPITAL - LONGVIEW,"700 EAST MARSHALL AVENUE,1ST FLOOR",LONGVIEW,TX,75601,(903) 315-1105,GENERAL ACUTE CARE,http://www.gsmc.org,PROPRIETARY,31,NOT AVAILABLE,Y
33.10543268,-94.16312021,CHRISTUS ST MICHAEL HOSPITAL - ATLANTA,1007 SOUTH WILLIAM STREET,ATLANTA,TX,75551,(903) 799-3000,GENERAL ACUTE CARE,http://www.christusstmichael.org/atlanta,NON-PROFIT,43,LEVEL IV,Y
33.46417889,-94.0754934,CHRISTUS ST. MICHAEL HEALTH SYSTEM,2600 SAINT MICHAEL DRIVE,TEXARKANA,TX,75504,(903) 614-2219,GENERAL ACUTE CARE,http://www.christusstmichael.org,NON-PROFIT,312,LEVEL III,Y
33.46503055,-94.07072522,CHRISTUS ST. MICHAEL REHABILITATION HOSPITAL,2400 ST MICHAEL DRIVE,TEXARKANA,TX,75504,(903) 614-4000,REHABILITATION,http://www.christusstmichael.org/rehab,NON-PROFIT,50,NOT AVAILABLE,NOT AVAILABLE
33.46528357,-94.07103727,PAM SPECIALTY HOSPITAL OF TEXARKANA NORTH,"2400 ST. MICHAEL DRIVE,2ND FLOOR",TEXARKANA,TX,75503,(903) 614-7600,LONG TERM CARE,http://www.warmsprings.org/our-facilities/hospitals/post-acute-medical-specialty-hospital-texarkana-north/,PROPRIETARY,30,NOT AVAILABLE,Y
33.42891417,-94.04762712,WADLEY REGIONAL MEDICAL CENTER,1000 PINE STREET,TEXARKANA,TX,75501,(903) 798-8000,GENERAL ACUTE CARE,http://www.wadleyhealth.com,PROPRIETARY,370,LEVEL III,Y
33.43007747,-94.04822781,HEALTHSOUTH REHABILITATION HOSPITAL OF TEXARKANA,515 WEST 12TH STREET,TEXARKANA,TX,75501,(903) 735-5000,REHABILITATION,http://www.healthsouthtexarkana.com,PROPRIETARY,60,NOT AVAILABLE,NOT AVAILABLE
33.42908549,-94.04734159,PAM SPECIALTY HOSPITAL OF TEXARKANA SOUTH,"1000 PINE STREET,6TH FLOOR",TEXARKANA,TX,75501,(903) 798-7600,LONG TERM CARE,http://www.warmsprings.org/our-facilities/hospitals/post-acute-medical-specialty-hospital-texarkana-south/,PROPRIETARY,19,NOT AVAILABLE,NOT AVAILABLE
32.94453832,-95.30727963,CHRISTUS MOTHER FRANCES HOSPITAL - WINNSBORO,719 WEST COKE ROAD,WINNSBORO,TX,75494,(903) 342-5227,CRITICAL ACCESS,http://www.tmfhs.org,NON-PROFIT,25,LEVEL IV,Y
33.15762802,-95.60014471,CHRISTUS MOTHER FRANCES HOSPITAL - SULPHUR SPRINGS,115 AIRPORT ROAD,SULPHUR SPRINGS,TX,75483,(903) 439-4052,GENERAL ACUTE CARE,http://www.hcmh.com,GOVERNMENT - DISTRICT/AUTHORITY,96,LEVEL IV,Y
33.68773479,-95.54760763,PARIS REGIONAL MEDICAL CENTER - NORTH CAMPUS,865 DESHONG DRIVE,PARIS,TX,75461,(903) 785-4521,GENERAL ACUTE CARE,http://parisregionalmedical.com/,PROPRIETARY,154,NOT AVAILABLE,NOT AVAILABLE
33.6596692,-95.54722893,PARIS REGIONAL MEDICAL CENTER - SOUTH CAMPUS,820 CLARKSVILLE STREET,PARIS,TX,75460,(903) 785-4521,GENERAL ACUTE CARE,http://www.parisrmc.com,PROPRIETARY,214,NOT AVAILABLE,Y
33.68784764,-95.54823349,DUBUIS HOSPITAL OF PARIS,820 CLARKSVILLE STREET,PARIS,TX,75460,(903) 737-3600,LONG TERM CARE,http://www.dubuis.org/CHRISTUSDubuisHospitalofParis,NON-PROFIT,25,NOT AVAILABLE,Y
33.17671639,-95.23494579,EAST TEXAS MEDICAL CENTER MOUNT VERNON,500 TEXAS 37,MOUNT VERNON,TX,75457,NOT AVAILABLE,GENERAL ACUTE CARE,http://www.etmc.org/etmcmountvernon/,NON-PROFIT,49,NOT AVAILABLE,Y
33.17559939,-94.97117494,TITUS REGIONAL MEDICAL CENTER,2001 NORTH JEFFERSON AVENUE,MOUNT PLEASANT,TX,75455,(903) 577-6000,GENERAL ACUTE CARE,http://www.titusregional.com,GOVERNMENT - DISTRICT/AUTHORITY,164,LEVEL III,Y
33.61144717,-95.09925665,EAST TEXAS MEDICAL CENTER - CLARKSVILLE,3000 U.S. 82,CLARKSVILLE,TX,75426,NOT AVAILABLE,GENERAL ACUTE CARE,http://www.etmc.org,NON-PROFIT,49,NOT AVAILABLE,Y
33.57832798,-96.16664583,TMC BONHAM HOSPITAL,504 LIPSCOMB BOULEVARD,BONHAM,TX,75418,(903) 583-8585,CRITICAL ACCESS,http://www.tmcbonham.com/,PROPRIETARY,25,NOT AVAILABLE,Y
33.58458954,-96.16663814,SAM RAYBURN MEMORIAL VETERANS CENTER,1201 E 9TH ST,BONHAM,TX,75418,(903) 583-2111,MILITARY,http://www.northtexas.va.gov/,GOVERNMENT - FEDERAL,-999,NOT AVAILABLE,N
33.12369603,-96.08228748,GLEN OAKS HOSPITAL,301 EAST DIVISION ST.,GREENVILLE,TX,75402,(903) 454-6000,PSYCHIATRIC,http://www.glenoakshospital.com,PROPRIETARY,54,NOT AVAILABLE,NOT AVAILABLE
33.12231408,-96.12397074,HUNT REGIONAL MEDICAL CENTER GREENVILLE,4215 JOE RAMSEY BOULEVARD,GREENVILLE,TX,75401,(903) 408-5000,GENERAL ACUTE CARE,http://www.huntregional.org,GOVERNMENT - DISTRICT/AUTHORITY,192,LEVEL IV,Y
32.81198031,-96.83973141,UNIVERSITY OF TEXAS SOUTHWESTERN MEDICAL CENTER,5323 HARRY HINES BOULEVARD,DALLAS,TX,75390,NOT AVAILABLE,GENERAL ACUTE CARE,http://www.utsouthwestern.edu,GOVERNMENT - STATE,148,NOT AVAILABLE,Y
32.91526053,-96.86979587,DALLAS MEDICAL CENTER,7 MEDICAL PARKWAY,DALLAS,TX,75381,(972) 888-7070,GENERAL ACUTE CARE,http://www.dallasmedcenter.com,PROPRIETARY,155,NOT AVAILABLE,Y
32.76037381,-96.82602355,METHODIST DALLAS MEDICAL CENTER,1441 N. BECKLEY AVENUE,DALLAS,TX,75265,(214) 947-8181,GENERAL ACUTE CARE,http://www.methodisthealthsystem.org/Dallas,NON-PROFIT,585,LEVEL I,Y
32.91280443,-96.77126529,MEDICAL CITY GREEN OAKS HOSPITAL,7808 CLODUS FIELDS DRIVE,DALLAS,TX,75251,(972) 991-9504,PSYCHIATRIC,http://www.greenoakspsych.com,PROPRIETARY,124,NOT AVAILABLE,NOT AVAILABLE
32.82592017,-96.86960835,OUR CHILDRENS HOUSE,1340 EMPIRE CENTRAL DRIVE,DALLAS,TX,75247,(214) 867-6700,CHILDREN,https://www.childrens.com/location-landing/locations-and-directions/och/dallas,PROPRIETARY,39,NOT AVAILABLE,NOT AVAILABLE
32.78958516,-96.78027265,BAYLOR UNIVERSITY MEDICAL CENTER,3500 GASTON AVENUE,DALLAS,TX,75246,(214) 820-0111,GENERAL ACUTE CARE,http://www.baylorhealth.com/PhysiciansLocations/Dallas/Pages/Default.aspx,NON-PROFIT,940,I,Y
29.92567485,-95.63176223,NORTH CYPRESS MEDICAL CENTER,21214 NORTHWEST FREEWAY,CYPRESS,TX,75246,(832) 912-3500,GENERAL ACUTE CARE,http://www.ncmc-hospital.com,PROPRIETARY,139,NOT AVAILABLE,Y
32.79157855,-96.78043674,BAYLOR INSTITUTE FOR REHABILITATION,909 N. WASHINGTON AVENUE,DALLAS,TX,75246,(214) 820-9300,REHABILITATION,https://www.baylorhealth.com/rehab,NON-PROFIT,92,NOT AVAILABLE,NOT AVAILABLE
32.79026509,-96.78029041,SELECT SPECIALTY HOSPITAL - DALLAS (DOWNTOWN),"3500 GASTON AVENUE,3RD AND 4TH FLOOR",DALLAS,TX,75246,(972) 227-0093,LONG TERM CARE,http://dallasdowntown.selectspecialtyhospitals.com/,PROPRIETARY,46,NOT AVAILABLE,NOT AVAILABLE
32.90543394,-96.74884756,KINDRED HOSPITAL - DALLAS,9525 GREENVILLE AVE,DALLAS,TX,75243,(214) 355-2600,LONG TERM CARE,http://www.khdallas.com,PROPRIETARY,110,NOT AVAILABLE,NOT AVAILABLE
32.64576186,-96.87684862,METHODIST CHARLTON MEDICAL CENTER,3500 WEST WHEATLAND ROAD,DALLAS,TX,75237,(214) 947-7777,GENERAL ACUTE CARE,http://www.methodisthealthsystem.org/charlton,NON-PROFIT,317,NOT AVAILABLE,Y
32.64633778,-96.87102402,METHODIST REHABILITATION HOSPITAL,3020 WEST WHEATLAND ROAD,DALLAS,TX,75237,(972) 708-8600,REHABILITATION,http://www.methodist-rehab.com,PROPRIETARY,40,NOT AVAILABLE,NOT AVAILABLE
32.81065535,-96.83809091,PARKLAND MEMORIAL HOSPITAL,5201 HARRY HINES BOULEVARD,DALLAS,TX,75235,(214) 590-0356,GENERAL ACUTE CARE,http://www.parklandhospital.com,GOVERNMENT - DISTRICT/AUTHORITY,870,LEVEL I,Y
32.80918566,-96.83747396,CHILDREN'S MEDICAL CENTER OF DALLAS,1935 MEDICAL DISTRICT STREET,DALLAS,TX,75235,(214) 456-2143,GENERAL ACUTE CARE,http://www.childrens.com,NON-PROFIT,487,LEVEL I,Y
32.81896722,-96.84883749,WILLIAM P. CLEMENTS JR. UNIVERSITY HOSPITAL,"6161 HARRY HINES BOULEVARD,SUITE 100",DALLAS,TX,75235,(214) 633-5555,LONG TERM CARE,http://www.utswmedicine.org/hospitals-clinics/clements/,GOVERNMENT - STATE,460,NOT AVAILABLE,NOT AVAILABLE
32.83258117,-96.86203847,PROMISE HOSPITAL OF DALLAS,7955 HARRY HINES BOULEVARD,DALLAS,TX,75235,(214) 637-0000,LONG TERM CARE,http://www.promise-dallas.com/,PROPRIETARY,66,NOT AVAILABLE,NOT AVAILABLE
32.81724044,-96.84885029,LIFECARE HOSPITALS OF DALLAS,1950 RECORD CROSSING ROAD,DALLAS,TX,75235,(214) 640-9673,LONG TERM CARE,http://www.lifecare-hospitals.com/hospital/dallas,PROPRIETARY,60,NOT AVAILABLE,NOT AVAILABLE
32.84084287,-96.86830231,PINE CREEK MEDICAL CENTER,9032 HARRY HINES  BOULEVARD,DALLAS,TX,75235,(214) 231-2273,GENERAL ACUTE CARE,http://www.pinecreekmedicalcenter.com,PROPRIETARY,18,NOT AVAILABLE,NOT AVAILABLE
32.88113418,-96.76243766,TEXAS HEALTH PRESBYTERIAN HOSPITAL DALLAS,8200 WALNUT HILL LANE,DALLAS,TX,75231,(214) 345-6789,GENERAL ACUTE CARE,http://www.texashealth.org,NON-PROFIT,888,LEVEL II,Y
32.8868949,-96.76738833,KINDRED HOSPITAL DALLAS CENTRAL,"8050 MEADOW ROAD,FIRST FLOOR",DALLAS,TX,75231,(469) 232-6500,LONG TERM CARE,http://www.khdallascentral.com/,PROPRIETARY,60,NOT AVAILABLE,NOT AVAILABLE
32.87528905,-96.7713632,NORTH CENTRAL SURGICAL CENTER,"9301 NORTH CENTRAL EXPRESSWAY,# 100",DALLAS,TX,75231,(214) 265-2810,GENERAL ACUTE CARE,http://northcentral-sc.com/,PROPRIETARY,25,NOT AVAILABLE,NOT AVAILABLE
32.88843795,-96.7665543,FIRST BAPTIST MEDICAL CENTER,8111 MEADOW ROAD,DALLAS,TX,75231,(972) 247-7767,GENERAL ACUTE CARE,http://www.fbmcdallas.com/,PROPRIETARY,16,NOT AVAILABLE,NOT AVAILABLE
32.87687764,-96.76226157,TEXAS INSTITUTE FOR SURGERY AT TEXAS HEALTH PRESBYTERIAN DALLAS,7115 GREENVILLE AVENUE,DALLAS,TX,75231,(214) 647-5300,SPECIAL,http://www.texasinstituteforsurgery.com,PROPRIETARY,9,NOT AVAILABLE,NOT AVAILABLE
32.91193288,-96.77407387,MEDICAL CITY DALLAS HOSPITAL,7777 FOREST LANE,DALLAS,TX,75230,(972) 566-6000,GENERAL ACUTE CARE,http://www.medicalcityhospital.com,PROPRIETARY,797,LEVEL IV,Y
32.90107033,-96.77052204,HEALTHSOUTH REHABILITATION HOSPITAL OF DALLAS,7930 NORTHAVEN,DALLAS,TX,75230,NOT AVAILABLE,REHABILITATION,http://www.healthsouthdallas.com/,PROPRIETARY,60,NOT AVAILABLE,NOT AVAILABLE
32.79183535,-96.71651281,TIMBERLAWN MENTAL HEALTH SYSTEM,4600 SAMUELL BOULEVARD,DALLAS,TX,75228,(214) 381-7181,PSYCHIATRIC,http://www.timberlawn.com,PROPRIETARY,144,NOT AVAILABLE,NOT AVAILABLE
32.78817065,-96.78119411,BAYLOR HEART AND VASCULAR CENTER,621 N. HALL STREET,DALLAS,TX,75226,(214) 820-0600,SPECIAL,https://www.baylorhearthospital.com/Dallas.html,PROPRIETARY,64,NOT AVAILABLE,Y
32.8019769,-96.81431331,TEXAS SCOTTISH RITE HOSPITAL FOR CHILDREN,2222 WELBORN STREET,DALLAS,TX,75219,(214) 559-5000,CHILDREN,http://www.tsrhc.org,NON-PROFIT,100,NOT AVAILABLE,Y
32.83478291,-96.70493202,BAYLOR SCOTT & WHITE MEDICAL CENTER - WHITE ROCK,9440 POPPY DRIVE,DALLAS,TX,75218,(214) 324-6100,GENERAL ACUTE CARE,http://www.baylorhealth.com/PhysiciansLocations/WhiteRock/Pages/Default.aspx,NON-PROFIT,218,NOT AVAILABLE,NOT AVAILABLE
32.83448662,-96.70583767,KINDRED HOSPITAL - WHITE ROCK,"9440 POPPY DRIVE,5TH FLOOR SOUTH",DALLAS,TX,75218,(214) 324-6730,LONG TERM CARE,http://www.khwhiterock.com,PROPRIETARY,25,NOT AVAILABLE,NOT AVAILABLE
32.69305631,-96.79128946,VA MEDICAL CENTER - DALLAS,4500 S LANCASTER RD,DALLAS,TX,75216,(800) 849-3597,MILITARY,http://www.northtexas.va.gov/,GOVERNMENT - FEDERAL,-999,NOT AVAILABLE,N
32.79182316,-96.78160751,BAYLOR SPECIALTY HOSPITAL,3504 SWISS AVENUE,DALLAS,TX,75204,NOT AVAILABLE,LONG TERM CARE,http://www.baylorhealth.com/PhysiciansLocations/Dallas/VisitorsGuide/MapsLocations/Pages/BaylorSpecialtyHospital.aspx,NON-PROFIT,68,NOT AVAILABLE,NOT AVAILABLE
32.80424638,-96.79495495,BAYLOR MEDICAL CENTER AT UPTOWN,2727 EAST LEMMON AVENUE,DALLAS,TX,75204,(214) 443-3040,GENERAL ACUTE CARE,http://www.bmcuptown.com,PROPRIETARY,24,NOT AVAILABLE,NOT AVAILABLE
32.77911727,-96.56881181,BAYLOR SCOTT & WHITE MEDICAL CENTER - SUNNYVALE,231 SOUTH COLLINS ROAD,SUNNYVALE,TX,75182,(972) 892-3000,GENERAL ACUTE CARE,http://www.baylorhealth.com/PhysiciansLocations/Sunnyvale/Pages/Default.aspx,PROPRIETARY,70,NOT AVAILABLE,Y
32.42751892,-96.85791008,BAYLOR SCOTT & WHITE MEDICAL CENTER AT WAXAHACHIE,2400 N I-35 E,WAXAHACHIE,TX,75165,(469) 843-4000,GENERAL ACUTE CARE,https://www.baylorhealth.com/PhysiciansLocations/Waxahachie/Pages/Default.aspx,NON-PROFIT,104,NOT AVAILABLE,Y
32.74075986,-96.26274185,TERRELL STATE HOSPITAL,1200 EAST BRIN STREET,TERRELL,TX,75160,NOT AVAILABLE,PSYCHIATRIC,http://www.dshs.state.tx.us/mhhospitals/terrellsh,GOVERNMENT - STATE,316,NOT AVAILABLE,NOT AVAILABLE
32.77879048,-96.60051029,DALLAS REGIONAL MEDICAL CENTER,1011 NORTH GALLOWAY AVENUE,MESQUITE,TX,75149,(214) 320-7787,GENERAL ACUTE CARE,http://www.dallasregionalmedicalcenter.com,PROPRIETARY,202,LEVEL IV,Y
32.77813391,-96.5986591,MESQUITE SPECIALTY HOSPITAL,1024 NORTH GALLOWAY AVENUE,MESQUITE,TX,75149,(972) 216-2300,LONG TERM CARE,http://www.msh.ernesthealth.com,PROPRIETARY,40,NOT AVAILABLE,NOT AVAILABLE
32.7784212,-96.59849193,MESQUITE REHABILITATION HOSPITAL,1023 NORTH BELT LINE ROAD,MESQUITE,TX,75149,(972) 216-2400,REHABILITATION,http://mesquiterehab.ernesthealth.com/,PROPRIETARY,30,NOT AVAILABLE,NOT AVAILABLE
32.60292166,-96.81241605,CRESCENT MEDICAL CENTER LANCASTER,2600 WEST PLEASANT RUN ROAD,LANCASTER,TX,75146,(469) 297-5321,GENERAL ACUTE CARE,http://cmcl.us/,PROPRIETARY,84,NOT AVAILABLE,NOT AVAILABLE
32.59216961,-96.31852025,TEXAS HEALTH PRESBYTERIAN HOSPITAL KAUFMAN,850 ED HALL DRIVE,KAUFMAN,TX,75142,(972) 932-7200,GENERAL ACUTE CARE,http://www.texashealth.org/Kaufman,NON-PROFIT,91,LEVEL IV,Y
32.67939133,-95.72255745,TEXAS GENERAL HOSPITAL - VAN ZANDT REGIONAL MEDICAL CENTER,707 NORTH WALDRIP STREET,GRAND SALINE,TX,75140,(903) 717-3300,GENERAL ACUTE CARE,http://www.texasgeneralhospital.com/,PROPRIETARY,52,NOT AVAILABLE,NOT AVAILABLE
32.30672455,-96.64149104,ENNIS REGIONAL MEDICAL CENTER,2201 WEST LAMPASAS  STREET,ENNIS,TX,75119,(972) 875-0900,GENERAL ACUTE CARE,http://www.ennisregional.com,PROPRIETARY,60,LEVEL IV,Y
32.6424243,-96.87476008,DALLAS BEHAVIORAL HEALTHCARE HOSPITAL LLC,800 KIRNWOOD DRIVE,DE SOTO,TX,75115,(972) 982-0897,PSYCHIATRIC,http://www.dallasbehavioral.com/,PROPRIETARY,116,NOT AVAILABLE,N
32.62823893,-96.86491473,HICKORY TRAIL HOSPITAL,2000 NORTH OLD HICKORY TRAIL,DE SOTO,TX,75115,(972) 298-7323,PSYCHIATRIC,http://www.hickorytrail.com,PROPRIETARY,84,NOT AVAILABLE,NOT AVAILABLE
32.64465296,-96.88347894,VIBRA SPECIALTY HOSPITAL,2700 WALKER WAY,DE SOTO,TX,75115,(972) 298-1100,LONG TERM CARE,http://www.vibrahealthcare.com/,PROPRIETARY,40,NOT AVAILABLE,NOT AVAILABLE
33.01223393,-96.62435282,BAYLOR EMERGENCY MEDICAL CENTER,"511 FM 544,SUITE 100",MURPHY,TX,75094,(214) 294-6150,GENERAL ACUTE CARE,http://www.bayloremc.com/,PROPRIETARY,8,NOT AVAILABLE,N
33.04366355,-96.83647095,TEXAS HEALTH PRESBYTERIAN HOSPITAL PLANO,6200 WEST PARKER ROAD,PLANO,TX,75093,(972) 981-8000,GENERAL ACUTE CARE,http://www.texashealth.org,NON-PROFIT,366,LEVEL II,Y
33.0132922,-96.79036603,BAYLOR SCOTT & WHITE MEDICAL CENTER - PLANO,4700 ALLIANCE BOULEVARD,PLANO,TX,75093,(469) 814-3176,GENERAL ACUTE CARE,http://www.baylorhealth.com/PhysiciansLocations/Plano/Pages/Default.aspx,NON-PROFIT,160,NOT AVAILABLE,Y
33.01459949,-96.7893949,THE HEART HOSPITAL BAYLOR PLANO,1100 ALLIED DRIVE,PLANO,TX,75093,(469) 814-5599,SPECIAL,http://www.thehearthospital.com,PROPRIETARY,116,NOT AVAILABLE,Y
33.04329279,-96.83509622,TEXAS HEALTH SEAY BEHAVIORAL HEALTH CENTER PLANO,6110 WEST PARKER ROAD,PLANO,TX,75093,NOT AVAILABLE,PSYCHIATRIC,https://www.texashealth.org/behavioral-health/Pages/default.aspx,NON-PROFIT,48,NOT AVAILABLE,Y
33.00580642,-96.776953,WELLBRIDGE HOSPITAL OF PLANO,4301 MAPLESHADE LANE,PLANO,TX,75093,(972) 596-5445,PSYCHIATRIC,http://oceansplano.com/,PROPRIETARY,48,NOT AVAILABLE,N
33.03139595,-96.85435167,ACCEL REHABILITATION HOSPITAL OF PLANO,"2301 MARSH LANE,SUITE 200",PLANO,TX,75093,(972) 899-5510,REHABILITATION,http://accelrehab.com/,PROPRIETARY,42,NOT AVAILABLE,NOT AVAILABLE
33.03172907,-96.85401854,PLANO SURGICAL HOSPITAL,"2301 MARSH LANE,SUITE 100",PLANO,TX,75093,(972) 820-2515,GENERAL ACUTE CARE,http://planosurgicalhospital.com/,PROPRIETARY,26,NOT AVAILABLE,NOT AVAILABLE
33.01352063,-96.79205068,EATING RECOVERY CENTER,"4708 ALLIANCE BOULEVARD,THIRD FLOOR",PLANO,TX,75093,(972) 479-5779,PSYCHIATRIC,https://www.eatingrecoverycenter.com,PROPRIETARY,24,NOT AVAILABLE,NOT AVAILABLE
33.04407056,-96.83176815,TEXAS HEALTH CENTER FOR DIAGNOSTICS & SURGERY PLANO,6020 WEST PARKER ROAD,PLANO,TX,75093,(972) 403-2700,GENERAL ACUTE CARE,http://www.thcds.com/,PROPRIETARY,18,NOT AVAILABLE,NOT AVAILABLE
33.63709739,-96.62382165,WILSON N JONES REGIONAL MEDICAL CENTER,500 NORTH HIGHLAND AVENUE,SHERMAN,TX,75092,(903) 870-4611,GENERAL ACUTE CARE,http://www.wnj.org,NON-PROFIT,202,LEVEL III,Y
33.66970891,-96.63515951,CARRUS REHABILITATION HOSPITAL,"1810 WEST HIGHWAY 82,STE 100",SHERMAN,TX,75092,(903) 870-2600,REHABILITATION,http://www.carrushospital.com/carrus-rehabilitation-hospital/,PROPRIETARY,24,NOT AVAILABLE,NOT AVAILABLE
33.66972557,-96.63438619,CARRUS SPECIALTY HOSPITAL,"1810 U.S. HIGHWAY 82 WEST,STE 200",SHERMAN,TX,75092,(903) 870-2600,LONG TERM CARE,http://www.carrushospital.com/carrus-specialty-hospital/,PROPRIETARY,16,NOT AVAILABLE,NOT AVAILABLE
33.66354355,-96.61335928,TMC BEHAVIORAL HEALTH CENTER,2601 CORNERSTONE DRIVE,SHERMAN,TX,75090,(903) 416-3000,PSYCHIATRIC,http://tmcbehavioralhealth.com/,PROPRIETARY,60,NOT AVAILABLE,N
33.67387407,-96.60449109,WILSON N JONES REGIONAL MEDICAL CENTER - BEHAVIORAL HEALTH SERVICES,1111 GALLAGHER ROAD,SHERMAN,TX,75090,(903) 870-7322,PSYCHIATRIC,http://www.wnj.org/Behavioral-Health,NON-PROFIT,20,NOT AVAILABLE,Y
33.67663535,-96.60185221,BAYLOR SCOTT & WHITE SURGICAL HOSPITAL AT SHERMAN,3601 NORTH CALAIS STREET,SHERMAN,TX,75090,(903) 813-9999,GENERAL ACUTE CARE,http://baylorsherman.com/,PROPRIETARY,14,NOT AVAILABLE,NOT AVAILABLE
32.91801933,-96.50871907,BAYLOR SCOTT & WHITE MEDICAL CENTER - LAKE POINTE,6800 SCENIC DRIVE,ROWLETT,TX,75088,(214) 294-6200,GENERAL ACUTE CARE,https://www.bswhealth.com/locations/lake-pointe/,PROPRIETARY,112,LEVEL III,Y
32.9140952,-96.44469769,BAYLOR EMERGENCY MEDICAL CENTER,"1975 ALPHA,SUITE 100",ROCKWALL,TX,75087,(214) 294-6200,GENERAL ACUTE CARE,http://www.bayloremc.com/rockwall/,PROPRIETARY,8,NOT AVAILABLE,NOT AVAILABLE
32.99608156,-96.66649032,METHODIST RICHARDSON MEDICAL CENTER,2831 E PRESIDENT GEORGE BUSH HWY,RICHARDSON,TX,75082,(469) 204-2000,GENERAL ACUTE CARE,http://www.methodisthealthsystem.org/Richardson,NON-PROFIT,183,NOT AVAILABLE,Y
32.97431653,-96.72660111,METHODIST RICHARDSON MEDICAL CENTER,401 WEST CAMPBELL ROAD,RICHARDSON,TX,75080,(469) 204-2000,GENERAL ACUTE CARE,http://www.methodisthealthsystem.org/Richardson,GOVERNMENT - DISTRICT/AUTHORITY,209,NOT AVAILABLE,Y
32.99798275,-96.75493758,HEALTHSOUTH REHABILITATION HOSPITAL RICHARDSON,3351 WATERVIEW PARKWAY,RICHARDSON,TX,75080,(972) 398-5700,REHABILITATION,http://www.healthsouthrichardson.com/,PROPRIETARY,50,NOT AVAILABLE,NOT AVAILABLE
32.97413807,-96.72711984,VIBRA HOSPITAL OF RICHARDSON,"401 WEST CAMPBELL ROAD,SUITE 300",RICHARDSON,TX,75080,(469) 329-7300,LONG TERM CARE,http://www.vibrahealthcare.com/,PROPRIETARY,20,NOT AVAILABLE,NOT AVAILABLE
32.99919628,-96.75579418,EMINENT MEDICAL CENTER,1351 W PRESIDENT BUSH HWY,RICHARDSON,TX,75080,(817) 800-8353,GENERAL ACUTE CARE,http://eminentmedicalcenter.com/,PROPRIETARY,5,NOT AVAILABLE,NOT AVAILABLE
33.020893,-96.7660152,MEDICAL CENTER OF PLANO,3901 WEST 15TH STREET,PLANO,TX,75075,(972) 519-1105,GENERAL ACUTE CARE,http://www.medicalcenterplano.com,PROPRIETARY,493,LEVEL I,Y
33.01842055,-96.74824313,HEALTHSOUTH PLANO REHABILITATION HOSPITAL,2800 WEST 15TH STREET,PLANO,TX,75075,(972) 612-9000,REHABILITATION,http://www.healthsouthplano.com,PROPRIETARY,83,NOT AVAILABLE,NOT AVAILABLE
33.02123751,-96.76907374,PLANO SPECIALTY HOSPITAL,1621 COIT ROAD,PLANO,TX,75075,(972) 758-5200,LONG TERM CARE,http://www.encore-healthcare.com/plano/index.aspx,PROPRIETARY,43,NOT AVAILABLE,NOT AVAILABLE
33.00140185,-96.77180156,STAR MEDICAL CENTER,4100 MAPLESHADE LANE,PLANO,TX,75075,(972) 265-1050,GENERAL ACUTE CARE,http://starmedicalcenter.com/,PROPRIETARY,7,NOT AVAILABLE,NOT AVAILABLE
33.22097161,-96.68260102,BAYLOR SCOTT & WHITE MEDICAL CENTER - MCKINNEY,5252 WEST UNIVERSITY DRIVE,MCKINNEY,TX,75071,(469) 764-2200,GENERAL ACUTE CARE,http://www.baylorhealth.com/PhysiciansLocations/McKinney/Pages/Default.aspx,NON-PROFIT,143,LEVEL III,Y
33.19729748,-96.64053232,MEDICAL CENTER OF MCKINNEY - WYSONG CAMPUS,130 SOUTH CENTRAL EXPRESSWAY,MCKINNEY,TX,75070,(972) 548-5300,PSYCHIATRIC,http://medicalcenterofmckinney.com/service/psychiatry,PROPRIETARY,103,LEVEL III,NOT AVAILABLE
33.14261683,-96.70720525,VICTORY MEDICAL CENTER CRAIG RANCH,"6045 ALMA ROAD,SUITE 100",MCKINNEY,TX,75070,NOT AVAILABLE,GENERAL ACUTE CARE,http://victory-healthcare.com/craig-ranch/,PROPRIETARY,24,NOT AVAILABLE,NOT AVAILABLE
33.17652529,-96.7222958,METHODIST MCKINNEY HOSPITAL,8000 WEST ELDORADO PARKWAY,MCKINNEY,TX,75070,(972) 569-2700,GENERAL ACUTE CARE,http://www.methodistmckinneyhospital.com,PROPRIETARY,23,NOT AVAILABLE,NOT AVAILABLE
33.15972664,-96.63669338,MEDICAL CITY MCKINNEY,4500 MEDICAL CENTER DRIVE,MCKINNEY,TX,75069,(972) 547-8001,GENERAL ACUTE CARE,http://www.medicalcenterofmckinney.com,PROPRIETARY,157,LEVEL III,Y
32.91229177,-96.95221323,BAYLOR SURGICAL HOSPITAL AT LAS COLINAS,400 WEST INTERSTATE 635,IRVING,TX,75063,(972) 868-4000,SPECIAL,http://www.baylorlascolinas.com/,PROPRIETARY,20,NOT AVAILABLE,Y
32.83458939,-96.9602494,BAYLOR SCOTT & WHITE MEDICAL CENTER - IRVING,1901 NORTH MACARTHUR BOULEVARD,IRVING,TX,75061,(972) 579-5409,GENERAL ACUTE CARE,http://www.baylorhealth.com/PhysiciansLocations/Irving/Pages/Default.aspx,NON-PROFIT,296,NOT AVAILABLE,Y
33.04524604,-97.0047628,MEDICAL CENTER OF LEWISVILLE,500 WEST MAIN STREET,LEWISVILLE,TX,75057,(972) 420-1537,GENERAL ACUTE CARE,http://www.lewisvillemedical.com,PROPRIETARY,202,LEVEL III,Y
32.73294147,-97.0493792,TEXAS GENERAL HOSPITAL,2709 HOSPITAL BOULEVARD,GRAND PRAIRIE,TX,75051,(469) 999-0000,GENERAL ACUTE CARE,NOT AVAILABLE,PROPRIETARY,41,NOT AVAILABLE,NOT AVAILABLE
32.91329646,-96.67016005,SUNDANCE HOSPITAL DALLAS,2696 W WALNUT ST,GARLAND,TX,75042,(469) 440-5566,PSYCHIATRIC,http://www.sundancehealthcare.com/dallas/,PROPRIETARY,116,NOT AVAILABLE,N
32.9190262,-96.66190093,BAYLOR SCOTT & WHITE MEDICAL CENTER - GARLAND,2300 MARIE CURIE DRIVE,GARLAND,TX,75042,(972) 487-5232,GENERAL ACUTE CARE,http://www.baylorhealth.com/PhysiciansLocations/Garland/Pages/Default.aspx,NON-PROFIT,113,NOT AVAILABLE,Y
32.91977573,-96.66210319,GARLAND BEHAVIORAL HOSPITAL,"2300 MARIE CURIVE BLVD,5TH FLOOR",GARLAND,TX,75042,(972) 487-5309,PSYCHIATRIC,http://garlandbehavioralhospital.com/,PROPRIETARY,72,NOT AVAILABLE,NOT AVAILABLE
32.91934267,-96.66137745,SELECT SPECIALTY HOSPITAL - DALLAS (GARLAND),"2300 MARIE CURIE,3W & 3E FLOORS",GARLAND,TX,75042,(469) 334-0853,LONG TERM CARE,http://dallasgarland.selectspecialtyhospitals.com/,PROPRIETARY,40,NOT AVAILABLE,NOT AVAILABLE
32.90173298,-96.95656507,MEDICAL CITY LAS COLINAS,6800 NORTH MACARTHUR BOULEVARD,IRVING,TX,75039,(972) 969-2080,GENERAL ACUTE CARE,http://www.lascolinasmedical.com,PROPRIETARY,100,NOT AVAILABLE,Y
33.11427398,-96.77091466,BAYLOR SCOTT & WHITE MEDICAL CENTER - CENTENNIAL,12505 LEBANON ROAD,FRISCO,TX,75035,(972) 963-3333,GENERAL ACUTE CARE,https://www.baylorhealth.com/PhysiciansLocations/centennial/Pages/Default.aspx,PROPRIETARY,118,NOT AVAILABLE,Y
33.10449021,-96.83782532,BAYLOR SCOTT & WHITE MEDICAL CENTER - FRISCO,5601 WARREN PARKWAY,FRISCO,TX,75034,(214) 407-5000,GENERAL ACUTE CARE,http://www.baylorhealth.com/PhysiciansLocations/Frisco/Pages/Default.aspx,PROPRIETARY,68,NOT AVAILABLE,NOT AVAILABLE
33.1510055,-96.83898502,MEDICAL CITY FRISCO,5500 FRISCO SQUARE BOULEVARD,FRISCO,TX,75034,(214) 618-0500,GENERAL ACUTE CARE,http://medicalcityfrisco.com/,PROPRIETARY,54,NOT AVAILABLE,NOT AVAILABLE
33.10295419,-96.84038653,BAYLOR INSTITUTE FOR REHABILITATION AT FRISCO,2990 LEGACY DRIVE,FRISCO,TX,75034,(469) 888-5100,REHABILITATION,http://www.baylorhealth.com/PhysiciansLocations/BIR/InpatientLocationsPrograms/BIRFrisco/Pages/Default.aspx,PROPRIETARY,44,NOT AVAILABLE,NOT AVAILABLE
33.15113861,-96.83785811,HAVEN BEHAVIORAL HOSPITAL OF FRISCO,5680 FRISCO SQUARE BOULEVARD,FRISCO,TX,75034,(469) 535-8000,PSYCHIATRIC,https://frisco.havenbehavioral.com/,PROPRIETARY,36,NOT AVAILABLE,N
32.8842895,-96.46622551,TEXAS HEALTH PRESBYTERIAN HOSPITAL ROCKWALL,3150 HORIZON ROAD,ROCKWALL,TX,75032,(469) 698-1000,GENERAL ACUTE CARE,http://www.phrtexas.com,PROPRIETARY,50,NOT AVAILABLE,Y
33.04551899,-97.06775674,TEXAS HEALTH PRESBYTERIAN HOSPITAL FLOWER MOUND,4400 LONG PRAIRIE ROAD,FLOWER MOUND,TX,75028,(469) 322-7000,GENERAL ACUTE CARE,http://www.phfmtexas.com/,PROPRIETARY,103,NOT AVAILABLE,Y
33.07853049,-96.80044497,CHILDRENS MEDICAL CENTER PLANO,7601 PRESTON ROAD,PLANO,TX,75024,(469) 303-7000,CHILDREN,https://www.childrens.com/location-landing/locations-and-directions/childrens-health-plano,PROPRIETARY,72,NOT AVAILABLE,Y
33.06549105,-96.79511498,LIFECARE HOSPITALS OF PLANO,6800 PRESTON ROAD,PLANO,TX,75024,(214) 473-8822,LONG TERM CARE,http://lifecare-hospitals.com/hospital/plano,PROPRIETARY,66,NOT AVAILABLE,NOT AVAILABLE
33.03536409,-97.07726192,ICARE REHABILTATION HOSPITAL,3100 PETERS COLONY ROAD,FLOWER MOUND,TX,75022,(214) 513-0310,REHABILITATION,http://icarerehabilitation.com/,PROPRIETARY,41,NOT AVAILABLE,NOT AVAILABLE
33.70971782,-96.58508703,TEXOMA MEDICAL CENTER,5016 SOUTH US HIGHWAY 75,DENISON,TX,75020,(903) 416-4000,GENERAL ACUTE CARE,http://www.texomamedicalcenter.net,PROPRIETARY,245,LEVEL III,Y
33.77021768,-96.55128107,REBA MCENTIRE CENTER FOR REHABILITATION,1200 REBA MCENTIRE LANE,DENISON,TX,75020,(903) 416-1000,REHABILITATION,https://www.texomamedicalcenter.net/services/rehabilitation/inpatient-rehabilitation,PROPRIETARY,21,NOT AVAILABLE,N
33.11597732,-96.67310105,TEXAS HEALTH PRESBYTERIAN HOSPITAL ALLEN,1105 CENTRAL EXPRESSWAY NORTH,ALLEN,TX,75013,(972) 747-1000,GENERAL ACUTE CARE,http://www.texashealth.org,NON-PROFIT,73,LEVEL IV,Y
33.11307427,-96.6764303,PAM REHABILITATION HOSPITAL OF ALLEN,1001 RAINTREE CIRCLE,ALLEN,TX,75013,(972) 908-2000,REHABILITATION,http://www.warmsprings.org/our-facilities/outpatient-rehabilitation/warm-springs-rehabilitation-center-allen/,PROPRIETARY,40,NOT AVAILABLE,NOT AVAILABLE
33.02869852,-96.88584949,BAYLOR SCOTT & WHITE MEDICAL CENTER - CARROLLTON,4343 NORTH JOSEY LANE,CARROLLTON,TX,75010,(972) 394-2255,GENERAL ACUTE CARE,http://www.baylorhealth.com,PROPRIETARY,235,NOT AVAILABLE,Y
33.04566135,-96.86485975,SELECT SPECIALTY HOSPITAL - DALLAS,2329 PARKER ROAD,CARROLLTON,TX,75010,(469) 892-1400,LONG TERM CARE,http://www.selectspecialtyhospitals.com/company/locations/dallas.aspx,PROPRIETARY,60,NOT AVAILABLE,NOT AVAILABLE
33.04591729,-96.86860721,CARROLLTON SPRINGS,2225 PARKER ROAD,CARROLLTON,TX,75010,(972) 242-4114,PSYCHIATRIC,http://www.carrolltonsprings.com/,PROPRIETARY,45,NOT AVAILABLE,NOT AVAILABLE
32.98553017,-96.89841644,TEXAS HEALTH HOSPITAL,1401 E TRINITY MILLS RD,CARROLLTON,TX,75006,(972) 810-0700,GENERAL ACUTE CARE,http://texashealthhospital.com/hospital/,PROPRIETARY,50,NOT AVAILABLE,NOT AVAILABLE
32.98467285,-96.82934071,METHODIST HOSPITAL FOR SURGERY,17101 N. DALLAS PARKWAY,ADDISON,TX,75001,(469) 248-3900,GENERAL ACUTE CARE,http://www.methodisthospitalforsurgery.com/,PROPRIETARY,32,NOT AVAILABLE,NOT AVAILABLE
33.61939639,-88.66237784,CLAY COUNTY MEDICAL CORPORATION,835 MEDICAL CENTER DRIVE,WEST POINT,MS,39773,(662) 495-2300,GENERAL ACUTE CARE,http://www.nmhs.net/westpoint/,NON-PROFIT,60,NOT AVAILABLE,NOT AVAILABLE
33.47617386,-88.82060544,OCH REGIONAL MEDICAL CENTER,400 HOSPITAL ROAD,STARKVILLE,MS,39759,(662) 323-4320,GENERAL ACUTE CARE,http://www.och.org/,GOVERNMENT - LOCAL,96,III,Y
33.44138187,-89.57281789,KILMICHAEL HOSPITAL,301 LAMAR STREET,KILMICHAEL,MS,39747,(662) 262-4311,GENERAL ACUTE CARE,NOT AVAILABLE,GOVERNMENT - LOCAL,19,NOT AVAILABLE,NOT AVAILABLE
33.53382972,-89.26625294,"WEBSTER HEALTH SERVICES, INC",70 MEDICAL PLAZA,EUPORA,MS,39744,(662) 258-6221,GENERAL ACUTE CARE,http://www.nmhs.net/eupora/,NON-PROFIT,38,NOT AVAILABLE,Y
33.31994427,-89.18268334,CHOCTAW REGIONAL MEDICAL CENTER,8613 MS HIGHWAY 12,ACKERMAN,MS,39735,(662) 285-4400,CRITICAL ACCESS,http://www.choctawregional.com/,NON-PROFIT,25,IV,Y
33.82018241,-88.54024448,PIONEER COMMUNITY HOSPITAL OF ABERDEEN,400 SOUTH CHESTNUT STREET,ABERDEEN,MS,39730,(662) 369-2455,GENERAL ACUTE CARE,http://www.pchaberdeen.com,PROPRIETARY,35,NOT AVAILABLE,NOT AVAILABLE
33.52528491,-88.42782379,BAPTIST MEMORIAL HOSPITAL - GOLDEN TRIANGLE,2520 5TH STREET NORTH,COLUMBUS,MS,39705,(662) 244-1500,GENERAL ACUTE CARE,http://www.baptistonline.org/golden-triangle/,NON-PROFIT,315,III,Y
31.12037143,-90.15576773,WALTHALL COUNTY GENERAL HOSPITAL,100 HOSPITAL DRIVE,TYLERTOWN,MS,39667,(601) 876-2122,CRITICAL ACCESS,http://www.walthallhospitalms.org,GOVERNMENT - LOCAL,25,IV,Y
31.55407036,-90.0998427,LAWRENCE COUNTY HOSPITAL,1065 EAST BROAD STREET,MONTICELLO,MS,39654,(601) 587-4051,CRITICAL ACCESS,http://www.smrmc.com,GOVERNMENT - LOCAL,25,IV,Y
31.47318095,-90.88440552,FRANKLIN COUNTY MEMORIAL HOSPITAL,40 UNION CHURCH ROAD,MEADVILLE,MS,39653,(601) 384-5801,CRITICAL ACCESS,http://www.fcmh.net,GOVERNMENT - LOCAL,25,IV,NOT AVAILABLE
31.1458664,-90.45959046,BEACHAM MEMORIAL HOSPITAL,205 NORTH CHERRY STREET,MAGNOLIA,MS,39652,(601) 783-2351,GENERAL ACUTE CARE,http://www.beachammemhos.com,NON-PROFIT,37,NOT AVAILABLE,NOT AVAILABLE
31.25101023,-90.47395559,SOUTHWEST MS REGIONAL MEDICAL CENTER,215 MARION AVENUE,MCCOMB,MS,39649,(601) 249-5500,GENERAL ACUTE CARE,http://www.smrmc.com,GOVERNMENT - DISTRICT/AUTHORITY,160,III,Y
31.08209929,-91.0588784,FIELD MEMORIAL COMMUNITY HOSPITAL,178 HIGHWAY 24E,CENTREVILLE,MS,39631,(601) 645-5221,CRITICAL ACCESS,http://fhsms.org/,GOVERNMENT - LOCAL,25,IV,Y
31.58916309,-90.45781796,KING'S DAUGHTERS MEDICAL CENTER,427 HIGHWAY 51 NORTH,BROOKHAVEN,MS,39601,(601) 833-6011,GENERAL ACUTE CARE,http://www.kdmc.org,NON-PROFIT,99,IV,NOT AVAILABLE
30.37639407,-88.53344391,SINGING RIVER HOSPITAL,2809 DENNY AVENUE,PASCAGOULA,MS,39581,(228) 809-5000,GENERAL ACUTE CARE,http://www.mysrhs.com,GOVERNMENT - LOCAL,435,III,Y
30.84486814,-89.11577106,STONE COUNTY HOSPITAL,1434 EAST CENTRAL AVENUE,WIGGINS,MS,39577,(601) 928-6600,CRITICAL ACCESS,http://www.schospital.net/,PROPRIETARY,25,IV,NOT AVAILABLE
30.41413522,-88.78071444,OCEAN SPRINGS HOSPITAL,3109 BIENVILLE BOULEVARD,OCEAN SPRINGS,MS,39564,(228) 818-1111,GENERAL ACUTE CARE,http://srhshealth.com/OSH_Hospital.htm,GOVERNMENT - LOCAL,136,III,Y
30.41511432,-88.94195402,GULF COAST VETERANS HEALTH CARE SYSTEM,400 VETERANS AVE,BILOXI,MS,39531,(228) 523-5000,MILITARY,http://www.biloxi.va.gov/,GOVERNMENT - FEDERAL,-999,NOT AVAILABLE,N
30.39593868,-88.88975065,MERIT HEALTH BILOXI,150 REYNOIR STREET,BILOXI,MS,39530,(228) 432-1571,GENERAL ACUTE CARE,http://www.merithealthbiloxi.com/,PROPRIETARY,198,III,NOT AVAILABLE
30.31677449,-89.35433795,HANCOCK MEDICAL CENTER,149 DRINKWATER BOULEVARD,BAY ST. LOUIS,MS,39521,(228) 467-8600,GENERAL ACUTE CARE,http://www.hmc.org,GOVERNMENT - LOCAL,102,IV,Y
30.44409012,-89.09343366,GARDEN PARK MEDICAL CENTER,15200 COMMUNITY ROAD,GULFPORT,MS,39503,(228) 575-7000,GENERAL ACUTE CARE,http://www.gpmedical.com,PROPRIETARY,130,III,Y
30.36767541,-89.11556961,MEMORIAL HOSPITAL AT GULFPORT,4500 13TH STREET,GULFPORT,MS,39501,(228) 867-4000,GENERAL ACUTE CARE,http://www.gulfportmemorial.com,GOVERNMENT - LOCAL,445,II,Y
30.36996901,-89.11611762,SELECT SPECIALTY HOSPITAL GULF COAST,1520 BROAD AVENUE,GULFPORT,MS,39501,(228) 575-7500,LONG TERM CARE,http://www.selectspecialtyhospitals.com/company/locations/gulfcoas,PROPRIETARY,61,NOT AVAILABLE,Y
30.36741843,-89.11603598,HEALTHSOUTH REHABILITATION HOSPITAL OF GULFPORT,"4500 13TH STREET,3RD FLOOR",GULFPORT,MS,39501,(228) 822-6965,REHABILITATION,http://healthsouthgulfport.com/,PROPRIETARY,33,NOT AVAILABLE,NOT AVAILABLE
31.34633998,-88.93772537,PERRY COUNTY GENERAL HOSPITAL,206 BAY AVENUE,RICHTON,MS,39476,(601) 788-6316,CRITICAL ACCESS,http://www.pcghospital.com/,PROPRIETARY,22,IV,Y
31.16660224,-89.42521313,SOUTH MS STATE HOSPITAL,823 HIGHWAY 589,PURVIS,MS,39475,(601) 794-0100,PSYCHIATRIC,http://www.smsh.state.ms.us,GOVERNMENT - STATE,50,NOT AVAILABLE,NOT AVAILABLE
31.59463819,-89.8722649,JEFFERSON DAVIS COMMUNITY HOSPITAL,1102 ROSE STREET,PRENTISS,MS,39474,(601) 792-4276,CRITICAL ACCESS,http://www.jdchospital.com,GOVERNMENT - LOCAL,35,IV,Y
30.8565401,-89.54201063,PEARL RIVER COUNTY HOSPITAL,305 WEST MOODY STREET,POPLARVILLE,MS,39470,(601) 795-4543,CRITICAL ACCESS,NOT AVAILABLE,GOVERNMENT - LOCAL,24,IV,Y
30.55006281,-89.66513169,HIGHLAND COMMUNITY HOSPITAL,130 HIGHLANDS PARKWAY,PICAYUNE,MS,39466,(601) 358-9400,GENERAL ACUTE CARE,http://www.forresthealth.org/our-locations/highland-community-hospital/,GOVERNMENT - LOCAL,60,IV,Y
30.92192447,-88.59393837,GEORGE REGIONAL HOSPITAL,859 WINTER STREET,LUCEDALE,MS,39452,(601) 947-3161,GENERAL ACUTE CARE,http://www.georgeregional.com,GOVERNMENT - LOCAL,48,IV,Y
31.15399173,-88.56278243,GREENE COUNTY HOSPITAL,1017 JACKSON STREET,LEAKESVILLE,MS,39451,(601) 394-4135,CRITICAL ACCESS,http://www.georgeregional.com/Greene-County-Hospital,GOVERNMENT - LOCAL,7,IV,Y
31.68495223,-89.1407941,SOUTH CENTRAL REGIONAL MEDICAL CENTER,1220 JEFFERSON STREET,LAUREL,MS,39441,(601) 426-4000,GENERAL ACUTE CARE,http://www.scrmc.com,GOVERNMENT - LOCAL,285,III,NOT AVAILABLE
31.25599595,-89.8055791,MARION GENERAL HOSPITAL,1560 SUMRALL ROAD,COLUMBIA,MS,39429,(601) 736-6303,GENERAL ACUTE CARE,http://www.forresthealth.org/our-locations/marion-general-hospital/,GOVERNMENT - LOCAL,49,IV,Y
31.63722205,-89.55474347,COVINGTON COUNTY HOSPITAL,701 SOUTH HOLLY STREET,COLLINS,MS,39428,(601) 765-6711,GENERAL ACUTE CARE,http://www.covingtoncountyhospital.com,GOVERNMENT - LOCAL,35,IV,Y
31.97702901,-89.29131849,JASPER GENERAL HOSPITAL,15-A SOUTH 6TH STREET,BAY SPRINGS,MS,39422,(601) 764-2101,GENERAL ACUTE CARE,www.jaspergeneralhospital.com/?,GOVERNMENT - LOCAL,16,NOT AVAILABLE,NOT AVAILABLE
31.32607396,-89.36646237,MERIT HEALTH WESLEY,5001 HARDY STREET,HATTIESBURG,MS,39402,(601) 268-8000,GENERAL ACUTE CARE,http://www.merithealthwesley.com/Merit-Health-Wesley/Home.aspx,PROPRIETARY,211,IV,Y
31.31873935,-89.33038891,REGENCY HOSPITAL OF HATTIESBURG,"6051 U.S. HWY 49,5TH FLOOR",HATTIESBURG,MS,39401,(601) 288-8510,LONG TERM CARE,http://www.regencyhospital.com/company/locations/mississippi-hattiesburg.aspx,PROPRIETARY,33,NOT AVAILABLE,Y
31.67311763,-88.63391303,WAYNE GENERAL HOSPITAL,950 MATTHEW DRIVE,WAYNESBORO,MS,39367,(601) 735-5151,GENERAL ACUTE CARE,http://www.waynegeneralhospital.org,GOVERNMENT - LOCAL,80,IV,Y
32.57587486,-89.10376033,LAIRD HOSPITAL,25117 HIGHWAY 15,UNION,MS,39365,(601) 774-8214,CRITICAL ACCESS,http://www.lairdhospital.com/lh/,NON-PROFIT,25,IV,Y
32.03053361,-88.72595896,H. C. WATKINS MEMORIAL HOSPITAL,605 SOUTH ARCHUSA AVENUE,QUITMAN,MS,39355,(601) 776-6925,CRITICAL ACCESS,http://www.watkinsmemorialhospital.com/hcwmh/,NON-PROFIT,25,IV,NOT AVAILABLE
32.75696071,-89.10626096,NESHOBA COUNTY GENERAL HOSPITAL,1001 HOLLAND AVENUE,PHILADELPHIA,MS,39350,(601) 663-1200,GENERAL ACUTE CARE,http://www.neshobageneral.com,GOVERNMENT - LOCAL,48,IV,Y
32.7823732,-89.23075186,MS BAND OF CHOCTAW HOSPITAL,210 HOSPITAL CIRCLE,CHOCTAW,MS,39350,(601) 656-2211,CRITICAL ACCESS,NOT AVAILABLE,GOVERNMENT - FEDERAL,-999,NOT AVAILABLE,NOT AVAILABLE
33.1222328,-88.55860538,NOXUBEE GENERAL CRITICAL ACCESS HOSPITAL,78 HOSPITAL ROAD,MACON,MS,39341,(662) 726-4231,CRITICAL ACCESS,http://www.ngcah.com/,GOVERNMENT - LOCAL,25,IV,Y
33.09800509,-89.06011088,WINSTON MEDICAL CETNER,923 SOUTH CHURCH STREET,LOUSVILLE,MS,39339,(662) 773-6211,GENERAL ACUTE CARE,http://www.winstonmedical.org/,NON-PROFIT,41,IV,N
33.12302393,-89.03585466,WINSTON MEDICAL CENTER,562 EAST MAIN,LOUISVILLE,MS,39339,(662) 773-6211,GENERAL ACUTE CARE,http://www.winstonmedical.org,NON-PROFIT,27,IV,Y
33.09746861,-89.06731116,DIAMOND GROVE CENTER,2311 HIGHWAY 15 SOUTH,LOUISVILLE,MS,39339,(662) 779-0119,PSYCHIATRIC,http://www.diamondgrovecenter.com,PROPRIETARY,25,NOT AVAILABLE,NOT AVAILABLE
32.77782229,-88.67962197,JOHN C STENNIS MEMORIAL HOSPITAL,14365 HIGHWAY 16 WEST,DEKALB,MS,39328,(769) 486-1000,CRITICAL ACCESS,http://www.johncstennismemorialhospital.com/jcsmh/,NON-PROFIT,25,IV,Y
32.37605729,-88.72646197,EAST MS STATE HOSPITAL,1818 COLLEGE DRIVE,MERIDIAN,MS,39304,(601) 581-7600,PSYCHIATRIC,http://www.emsh.state.ms.us,GOVERNMENT - STATE,201,NOT AVAILABLE,NOT AVAILABLE
32.40930168,-88.67599657,ALLIANCE HEALTH SYSTEM,5000 HIGHWAY 39 NORTH,MERIDIAN,MS,39303,(601) 483-6211,GENERAL ACUTE CARE,http://www.alliancehealthcenter.com,PROPRIETARY,154,NOT AVAILABLE,NOT AVAILABLE
32.37115474,-88.70007004,ANDERSON REGIONAL MEDICAL CENTER,2124 14TH STREET,MERIDIAN,MS,39301,(601) 553-6000,GENERAL ACUTE CARE,http://www.jarmc.org,NON-PROFIT,260,III,Y
32.37003789,-88.69753011,RUSH FOUNDATION HOSPITAL,1314 19TH AVENUE,MERIDIAN,MS,39301,(601) 483-0011,GENERAL ACUTE CARE,http://www.rushhealthsystems.org/rfh/,NON-PROFIT,215,III,Y
32.36843764,-88.69903542,ANDERSON REGIONAL MEDICAL CENTER SOUTH,1102 CONSTITUTION AVENUE,MERIDIAN,MS,39301,(601) 484-3590,GENERAL ACUTE CARE,www.andersonregional.org,NON-PROFIT,69,NOT AVAILABLE,Y
32.36961231,-88.6972544,THE SPECIALTY HOSPITAL OF MERIDIAN,1314 19TH AVENUE,MERIDIAN,MS,39301,(601) 486-4211,GENERAL ACUTE CARE,http://www.specialtyhospitalofmeridian.com/shm/,NON-PROFIT,49,NOT AVAILABLE,Y
32.36806826,-88.69906394,REGENCY HOSPITAL OF MERIDIAN,"1102 CONSTITUTION AVE.,2ND FLOOR",MERIDIAN,MS,39301,(601) 484-7900,LONG TERM CARE,http://www.regencyhospital.com,PROPRIETARY,40,NOT AVAILABLE,Y
32.32533746,-90.1054109,MERIT HEALTH RIVER OAKS,1030 RIVER OAKS DRIVE,FLOWOOD,MS,39296,(601) 932-1030,GENERAL ACUTE CARE,http://www.merithealthriveroaks.com/,PROPRIETARY,160,III,Y
32.32965119,-90.10133418,MERIT HEALTH WOMEN'S HOSPITAL,1026 NORTH FLOWOOD DRIVE,FLOWOOD,MS,39232,(601) 932-1000,WOMEN,http://www.merithealthwomanshospital.com/,PROPRIETARY,109,NOT AVAILABLE,NOT AVAILABLE
32.33159686,-90.10023004,BRENTWOOD BEHAVIORAL HEALTHCARE,3531 LAKELAND DRIVE,JACKSON,MS,39232,(601) 936-2024,PSYCHIATRIC,http://www.brentwoodjackson.com,PROPRIETARY,107,NOT AVAILABLE,NOT AVAILABLE
32.33256579,-90.16485667,ST. DOMINIC-JACKSON MEMORIAL HOSPITAL,969 LAKELAND DRIVE,JACKSON,MS,39216,(601) 200-2000,GENERAL ACUTE CARE,http://www.stdom.com,NON-PROFIT,571,IV,Y
32.32835321,-90.17223839,MS METHODIST REHABILITATION CENTER,1350 EAST WOODROW WILSON DRIVE,JACKSON,MS,39216,(601) 981-2611,REHABILITATION,http://www.methodistrehab.org,NON-PROFIT,124,NOT AVAILABLE,NOT AVAILABLE
32.32789016,-90.16732631,G.V. (SONNY) MONTGOMERY VA MEDICAL CENTER,1500 E WOODROW WILSON DR,JACKSON,MS,39216,(601) 362-4471,MILITARY,http://www.jackson.va.gov/,GOVERNMENT - FEDERAL,-999,NOT AVAILABLE,N
32.38977004,-90.14337561,SELECT SPECIALTY HOSPITAL - JACKSON,5903 RIDGEWOOD ROAD,JACKSON,MS,39211,(601) 899-3800,LONG TERM CARE,http://www.selectspecialtyhospitals.com/company/locations/jackson.,PROPRIETARY,53,NOT AVAILABLE,NOT AVAILABLE
32.28776853,-90.25451918,MERIT HEALTH CENTRAL,1850 CHADWICK DRIVE,JACKSON,MS,39204,(601) 376-1000,GENERAL ACUTE CARE,http://www.merithealthcentral.com/,PROPRIETARY,319,III,Y
32.3147564,-90.17944559,MS BAPTIST MEDICAL CENTER,1225 NORTH STATE STREET,JACKSON,MS,39202,(601) 968-1000,GENERAL ACUTE CARE,http://www.mbhs.org,NON-PROFIT,638,IV,Y
32.31526259,-90.17903678,SELECT SPECIALTY HOSPITAL BELHAVEN,1225 NORTH STATE STREET,JACKSON,MS,39202,(601) 973-1660,LONG TERM CARE,https://belhaven.selectspecialtyhospitals.com/,NON-PROFIT,25,NOT AVAILABLE,NOT AVAILABLE
32.8588947,-90.40425941,BAPTIST MEDICAL CENTER YAZOO,823 GRAND AVENUE,YAZOO CITY,MS,39194,(662) 746-2261,CRITICAL ACCESS,http://mbhs.org/locations/baptist-medical-center-yazoo/,NON-PROFIT,25,IV,NOT AVAILABLE
32.24280574,-90.07024536,MS STATE HOSPITAL,3550 HIGHWAY 468 WEST,WHITFIELD,MS,39193,(601) 351-8000,PSYCHIATRIC,http://www.msh.state.ms.us,GOVERNMENT - STATE,1479,NOT AVAILABLE,NOT AVAILABLE
32.2413923,-90.06975006,OAK CIRCLE CENTER - MISSISSIPPI STATE HOSPITAL,3550 HIGHWAY 468 WEST,WHITFIELD,MS,39193,(601) 351-8000,PSYCHIATRIC,http://www.msh.state.ms.us,GOVERNMENT - STATE,60,NOT AVAILABLE,NOT AVAILABLE
32.24565481,-90.06618747,WHITFIELD MEDICAL/SURGICAL HOSPITAL,"OAK CIRCLE,BUILDING 60",WHITFIELD,MS,39193,(601) 351-8023,GENERAL ACUTE CARE,http://www.msh.state.ms.us/tour/WMSH.htm,GOVERNMENT - STATE,32,NOT AVAILABLE,NOT AVAILABLE
32.37437276,-90.82452733,MERIT HEALTH RIVER REGION,2100 HIGHWAY 61 NORTH,VICKSBURG,MS,39183,(601) 883-5000,GENERAL ACUTE CARE,http://www.merithealthriverregion.com/merit-health-river-region/home.aspx,PROPRIETARY,361,IV,Y
32.31909412,-90.88172344,PROMISE HOSPITAL OF VICKSBURG,"1111 FRONTAGE ROAD,2ND FLOOR",VICKSBURG,MS,39180,(601) 883-3439,LONG TERM CARE,http://www.promise-vicksburg.com,PROPRIETARY,35,NOT AVAILABLE,Y
32.90473853,-90.88455527,SHARKEY-ISSAQUENA COMMUNITY HOSPITAL,47 SOUTH FOURTH STREET,ROLLING FORK,MS,39159,(662) 873-4395,GENERAL ACUTE CARE,NOT AVAILABLE,GOVERNMENT - LOCAL,29,IV,Y
32.00013987,-89.51948724,PATIENTS CHOICE MEDICAL CENTER,327 MAGNOLIA DRIVE,RALEIGH,MS,39153,(601) 782-9997,GENERAL ACUTE CARE,http://teamhealthms.com/pcmc-smith_county.html,PROPRIETARY,29,NOT AVAILABLE,NOT AVAILABLE
31.94631084,-90.98471094,CLAIBORNE COUNTY HOSPITAL,123 MCCOMB AVENUE,PORT GIBSON,MS,39150,(601) 437-5141,GENERAL ACUTE CARE,http://www.claibornecountymedicalcenter.org/,GOVERNMENT - LOCAL,32,IV,Y
31.52748985,-91.3917923,MERIT HEALTH NATCHEZ,54 SEARGENT PRENTISS DRIVE,NATCHEZ,MS,39121,(601) 443-2100,GENERAL ACUTE CARE,http://www.merithealthnatchez.com/,GOVERNMENT - LOCAL,179,IV,Y
32.34409674,-89.67257121,SCOTT REGIONAL HOSPITAL,317 HIGHWAY 13 SOUTH,MORTON,MS,39117,(601) 732-6301,CRITICAL ACCESS,http://www.scottregional.org/srh/,NON-PROFIT,25,IV,NOT AVAILABLE
31.96907265,-89.88649447,SIMPSON GENERAL HOSPITAL,"1842 SIMPSON, HIGHWAY 149",MENDENHALL,MS,39114,(601) 847-2221,GENERAL ACUTE CARE,http://www.simpsongeneralhospital.com,NON-PROFIT,35,IV,Y
31.87118017,-89.72902186,MAGEE GENERAL HOSPITAL,300 S. E. THIRD AVENUE,MAGEE,MS,39111,(601) 849-5070,GENERAL ACUTE CARE,http://www.mghosp.org,NON-PROFIT,64,IV,Y
33.11168955,-90.03073131,HOLMES COUNTY HOSPITAL & CLINICS,239 BOWLING GREEN ROAD,LEXINGTON,MS,39095,(662) 834-1321,CRITICAL ACCESS,http://holmescountymississippi.com/holmeswebhelthcare.html,GOVERNMENT - STATE,25,IV,NOT AVAILABLE
33.06586615,-89.59836339,BAPTIST MEDICAL CENTER - ATTALA,220 HIGHWAY 12 WEST,KOSCIUSKO,MS,39090,(662) 289-4311,CRITICAL ACCESS,http://mbhs.org/locations/baptist-medical-center-attala/,GOVERNMENT - LOCAL,25,IV,Y
31.8713551,-90.41463576,COPIAH COUNTY MEDICAL CENTER,27190 HWY 28,HAZELHURST,MS,39083,(601) 894-4541,CRITICAL ACCESS,http://hwmhospital.com/,GOVERNMENT - LOCAL,25,IV,Y
32.36603131,-89.47023244,S. E. LACKEY CRITICAL ACCESS HOSPITAL & SWINGBED,330 NORTH BROAD STREET,FOREST,MS,39074,(601) 469-4151,CRITICAL ACCESS,http://www.lackeymemorialhospital.com,NON-PROFIT,35,IV,Y
31.70499058,-91.0680515,JEFFERSON COUNTY HOSPITAL,870 SOUTH MAIN STREET,FAYETTE,MS,39069,(601) 786-3401,GENERAL ACUTE CARE,NOT AVAILABLE,GOVERNMENT - LOCAL,30,NON-DESIGNATED,NOT AVAILABLE
32.74115039,-89.51884947,BAPTIST MEDICAL CENTER LEAKE,310 ELLIS STREET,CARTHAGE,MS,39051,(601) 267-1100,CRITICAL ACCESS,http://www.mbhs.com/locations/baptist-medical-center-leake/,NON-PROFIT,25,IV,Y
